{"type": "FeatureCollection", "features": [{"type": "Feature", "properties": {"metro_id": "SAUM01", "metro_name": "Dammam", "n_members": 3, "n_missing": 1, "n_regions": 1, "regions": "Ash-Sharqīyah"}, "geometry": {"type": "MultiPolygon", "coordinates": [[[[50.132, 26.051], [50.1364, 26.0476], [50.1347, 26.0424], [50.1341, 26.0482], [50.132, 26.051]]], [[[50.1306, 26.0511], [50.1333, 26.0476], [50.1321, 26.0428], [50.1292, 26.051], [50.1306, 26.0511]]], [[[50.1391, 26.0475], [50.1384, 26.043], [50.1372, 26.0426], [50.1372, 26.0484], [50.1359, 26.0514], [50.1391, 26.0475]]], [[[50.1409, 26.0484], [50.141, 26.043], [50.1398, 26.0427], [50.1398, 26.0485], [50.1384, 26.0508], [50.139, 26.0515], [50.1409, 26.0484]]], [[[50.1255, 26.0489], [50.1209, 26.0502], [50.1216, 26.0526], [50.1237, 26.0514], [50.125, 26.0511], [50.1234, 26.0496], [50.126, 26.0501], [50.1255, 26.0489]]], [[[50.1664, 26.1284], [50.1603, 26.1301], [50.1624, 26.1366], [50.1677, 26.1353], [50.1676, 26.1322], [50.1694, 26.1321], [50.1695, 26.1306], [50.1669, 26.1311], [50.1664, 26.1284]]], [[[50.1945, 26.1555], [50.1959, 26.1574], [50.1959, 26.1572], [50.1952, 26.1561], [50.1945, 26.1555]]], [[[50.3128, 26.1884], [50.323, 26.1878], [50.3241, 26.1837], [50.3215, 26.1824], [50.3235, 26.1816], [50.32, 26.1818], [50.3128, 26.1884]]], [[[50.2337, 26.342], [50.233, 26.3412], [50.2332, 26.3435], [50.228, 26.3423], [50.2275, 26.3405], [50.228, 26.3424], [50.2238, 26.3416], [50.2244, 26.3387], [50.226, 26.3389], [50.2247, 26.3378], [50.2268, 26.3352], [50.226, 26.3335], [50.228, 26.3311], [50.2305, 26.319], [50.2298, 26.3087], [50.2334, 26.3085], [50.2337, 26.307], [50.231, 26.3063], [50.2297, 26.3085], [50.2283, 26.3073], [50.2274, 26.3023], [50.229, 26.3011], [50.2248, 26.2984], [50.2265, 26.2935], [50.2226, 26.2889], [50.2227, 26.2851], [50.2242, 26.2843], [50.2229, 26.284], [50.2232, 26.2791], [50.2206, 26.2752], [50.2214, 26.2723], [50.22, 26.272], [50.2189, 26.2656], [50.2201, 26.2556], [50.2213, 26.2554], [50.2202, 26.2555], [50.2204, 26.2413], [50.2228, 26.241], [50.2204, 26.2406], [50.2201, 26.2388], [50.2229, 26.2386], [50.223, 26.2381], [50.217, 26.2377], [50.217, 26.2362], [50.2199, 26.2354], [50.2161, 26.2344], [50.22, 26.2336], [50.2143, 26.232], [50.2202, 26.2314], [50.215, 26.2311], [50.215, 26.2298], [50.2203, 26.2294], [50.2143, 26.2275], [50.2205, 26.2271], [50.215, 26.2261], [50.2148, 26.2248], [50.2206, 26.2249], [50.214, 26.2233], [50.2204, 26.2234], [50.2204, 26.2222], [50.2157, 26.2209], [50.2203, 26.2211], [50.2215, 26.2198], [50.2202, 26.2188], [50.2217, 26.2182], [50.2274, 26.2182], [50.228, 26.2195], [50.2296, 26.2187], [50.23, 26.2224], [50.2316, 26.2234], [50.2299, 26.2235], [50.2306, 26.2251], [50.2321, 26.2252], [50.2319, 26.2236], [50.2372, 26.2246], [50.2402, 26.2218], [50.24, 26.2179], [50.2309, 26.2134], [50.2301, 26.2139], [50.2293, 26.2153], [50.2311, 26.2137], [50.2337, 26.2154], [50.2297, 26.2184], [50.2286, 26.2169], [50.2273, 26.218], [50.222, 26.2178], [50.2202, 26.2186], [50.2208, 26.1938], [50.2171, 26.1923], [50.2207, 26.1916], [50.2208, 26.1904], [50.2138, 26.1886], [50.2153, 26.1873], [50.2203, 26.1882], [50.2202, 26.1867], [50.2148, 26.186], [50.2206, 26.1843], [50.2137, 26.1841], [50.22, 26.1822], [50.2194, 26.181], [50.2164, 26.182], [50.2115, 26.178], [50.2065, 26.1728], [50.2068, 26.1717], [50.2058, 26.1695], [50.2066, 26.1718], [50.2053, 26.1722], [50.2003, 26.1652], [50.2008, 26.1638], [50.1997, 26.1646], [50.2005, 26.1633], [50.1983, 26.1627], [50.1993, 26.1616], [50.197, 26.1616], [50.1952, 26.1586], [50.1952, 26.1581], [50.1959, 26.1577], [50.1959, 26.1574], [50.1948, 26.1581], [50.1918, 26.1535], [50.191, 26.1539], [50.1884, 26.1516], [50.1848, 26.1512], [50.1846, 26.1505], [50.1839, 26.1504], [50.1833, 26.1529], [50.1921, 26.1586], [50.1931, 26.1631], [50.1919, 26.1628], [50.1903, 26.1673], [50.1843, 26.1738], [50.1772, 26.1763], [50.1769, 26.1796], [50.1766, 26.1771], [50.1726, 26.1748], [50.1699, 26.1753], [50.1697, 26.1795], [50.1693, 26.1794], [50.1696, 26.175], [50.167, 26.1733], [50.1651, 26.1651], [50.165, 26.1459], [50.1634, 26.1456], [50.1627, 26.1431], [50.1657, 26.1451], [50.1732, 26.1442], [50.1752, 26.1389], [50.1722, 26.1424], [50.171, 26.1382], [50.1699, 26.1393], [50.1687, 26.1372], [50.1704, 26.1354], [50.1625, 26.1372], [50.1616, 26.1364], [50.1597, 26.1298], [50.1659, 26.1274], [50.1635, 26.1238], [50.1645, 26.1218], [50.1629, 26.1216], [50.1637, 26.1195], [50.1626, 26.12], [50.1634, 26.1189], [50.1618, 26.117], [50.1632, 26.116], [50.1612, 26.1158], [50.1621, 26.1143], [50.1605, 26.1124], [50.1618, 26.112], [50.1607, 26.1123], [50.16, 26.1095], [50.1608, 26.1036], [50.1597, 26.102], [50.1607, 26.1019], [50.1613, 26.1006], [50.16, 26.1012], [50.1598, 26.0988], [50.162, 26.096], [50.1601, 26.0954], [50.1622, 26.0945], [50.1572, 26.088], [50.1573, 26.085], [50.1541, 26.0829], [50.154, 26.0796], [50.1523, 26.08], [50.1533, 26.0787], [50.152, 26.078], [50.154, 26.077], [50.1517, 26.0773], [50.1529, 26.0759], [50.151, 26.0741], [50.1524, 26.0737], [50.1528, 26.0733], [50.1513, 26.073], [50.1532, 26.072], [50.1509, 26.071], [50.1547, 26.0697], [50.1537, 26.0688], [50.1517, 26.0706], [50.1512, 26.0693], [50.1528, 26.0685], [50.1511, 26.069], [50.1505, 26.0673], [50.1526, 26.0588], [50.1558, 26.0576], [50.1541, 26.0563], [50.1565, 26.055], [50.1545, 26.0542], [50.1564, 26.0521], [50.1558, 26.0506], [50.1527, 26.0533], [50.1537, 26.0506], [50.1498, 26.0522], [50.1463, 26.0501], [50.1482, 26.0476], [50.157, 26.0493], [50.1544, 26.0481], [50.1568, 26.0441], [50.156, 26.0393], [50.1483, 26.0343], [50.1463, 26.0366], [50.1473, 26.0338], [50.1412, 26.032], [50.1383, 26.0295], [50.1322, 26.0298], [50.1336, 26.0356], [50.1319, 26.0416], [50.1344, 26.0412], [50.1382, 26.0376], [50.1366, 26.0414], [50.1444, 26.0382], [50.1473, 26.0395], [50.1463, 26.0418], [50.1442, 26.0389], [50.1387, 26.041], [50.143, 26.0424], [50.1411, 26.0466], [50.1419, 26.0501], [50.14, 26.0523], [50.137, 26.0523], [50.1391, 26.0555], [50.1416, 26.0549], [50.1416, 26.0568], [50.138, 26.0574], [50.1387, 26.0555], [50.1344, 26.0519], [50.1349, 26.0554], [50.1331, 26.0554], [50.1316, 26.0522], [50.1311, 26.0564], [50.1289, 26.0524], [50.128, 26.0563], [50.1266, 26.0534], [50.1246, 26.0556], [50.1219, 26.053], [50.1222, 26.0564], [50.1203, 26.0573], [50.12, 26.0544], [50.1185, 26.0543], [50.1177, 26.058], [50.1196, 26.0656], [50.1174, 26.0698], [50.1206, 26.0735], [50.121, 26.0754], [50.1195, 26.0751], [50.1215, 26.078], [50.1191, 26.0808], [50.1157, 26.0816], [50.115, 26.0879], [50.1177, 26.0879], [50.1181, 26.084], [50.12, 26.0857], [50.1199, 26.0888], [50.1169, 26.0891], [50.1181, 26.0905], [50.1166, 26.0924], [50.1163, 26.0889], [50.1136, 26.0883], [50.1141, 26.0908], [50.1129, 26.0908], [50.1123, 26.0913], [50.1139, 26.0918], [50.1127, 26.0932], [50.1113, 26.0923], [50.1125, 26.0933], [50.1116, 26.0943], [50.1106, 26.0931], [50.1111, 26.0966], [50.1076, 26.0987], [50.1081, 26.1019], [50.105, 26.108], [50.096, 26.1179], [50.0934, 26.1228], [50.0839, 26.125], [50.0795, 26.1245], [50.0778, 26.1272], [50.0771, 26.1375], [50.0744, 26.1445], [50.0846, 26.1481], [50.1082, 26.1504], [50.1214, 26.1765], [50.12, 26.2185], [50.1731, 26.2133], [50.1731, 26.216], [50.1969, 26.2417], [50.1969, 26.2518], [50.1912, 26.2591], [50.1798, 26.286], [50.1651, 26.2978], [50.1738, 26.3036], [50.1796, 26.3121], [50.1787, 26.3702], [50.1843, 26.3651], [50.1886, 26.3584], [50.206, 26.3662], [50.2068, 26.3633], [50.2163, 26.3651], [50.2173, 26.3641], [50.2357, 26.3746], [50.2389, 26.3682], [50.2349, 26.363], [50.2312, 26.3562], [50.2296, 26.3471], [50.2338, 26.3436], [50.2337, 26.342]]], [[[49.7737, 26.7172], [49.7706, 26.718], [49.7703, 26.7211], [49.7728, 26.734], [49.7751, 26.7382], [49.7821, 26.7416], [49.7818, 26.7449], [49.7728, 26.7508], [49.7703, 26.7545], [49.7686, 26.7659], [49.8316, 26.7706], [49.9132, 26.77], [49.9351, 26.7667], [49.9453, 26.7617], [49.9556, 26.7592], [49.9594, 26.7595], [49.9611, 26.7615], [49.9806, 26.7539], [49.9816, 26.751], [49.9791, 26.7474], [49.9783, 26.7422], [49.9852, 26.7265], [49.9776, 26.7038], [49.9651, 26.6851], [49.9686, 26.6806], [49.9871, 26.6696], [49.9879, 26.6627], [49.9861, 26.6604], [49.9878, 26.6609], [49.9901, 26.6579], [49.9992, 26.6619], [49.9933, 26.6591], [49.9927, 26.6522], [49.9959, 26.6552], [50.0087, 26.6563], [50.0125, 26.6551], [50.0145, 26.6542], [50.0158, 26.6508], [50.0108, 26.649], [50.0123, 26.6451], [50.0162, 26.6498], [50.0229, 26.6553], [50.0177, 26.6503], [50.0187, 26.6493], [50.0161, 26.6487], [50.013, 26.6451], [50.0132, 26.6421], [50.0117, 26.643], [50.0109, 26.6418], [50.012, 26.6382], [50.0093, 26.6359], [50.0067, 26.6277], [50.0141, 26.6226], [50.0218, 26.5901], [50.0213, 26.5854], [50.0171, 26.5817], [50.0215, 26.5708], [50.0225, 26.5709], [50.0211, 26.5818], [50.0279, 26.5845], [50.0285, 26.5905], [50.0363, 26.591], [50.0366, 26.5897], [50.0508, 26.5915], [50.0562, 26.5963], [50.0633, 26.5987], [50.0641, 26.5971], [50.0738, 26.5958], [50.0782, 26.5967], [50.0804, 26.6045], [50.0814, 26.6013], [50.0826, 26.6054], [50.0822, 26.6016], [50.0793, 26.5999], [50.0781, 26.5916], [50.0879, 26.5818], [50.0908, 26.5707], [50.0889, 26.5705], [50.0869, 26.5609], [50.0784, 26.5503], [50.0807, 26.5472], [50.0794, 26.5431], [50.0858, 26.5411], [50.087, 26.543], [50.0901, 26.542], [50.0886, 26.5379], [50.0856, 26.5388], [50.0885, 26.538], [50.09, 26.5419], [50.087, 26.5429], [50.0858, 26.5394], [50.0858, 26.5409], [50.0804, 26.5425], [50.0732, 26.5409], [50.0682, 26.5415], [50.0653, 26.5443], [50.0393, 26.5442], [50.0365, 26.5473], [50.036, 26.5561], [50.0298, 26.5553], [50.0309, 26.5562], [50.0241, 26.5628], [50.0227, 26.5701], [50.0216, 26.5701], [50.0228, 26.5628], [50.0217, 26.5549], [50.0287, 26.5556], [50.0229, 26.5537], [50.0299, 26.5533], [50.0329, 26.5509], [50.0299, 26.5497], [50.0319, 26.5457], [50.0349, 26.5467], [50.031, 26.5452], [50.0302, 26.547], [50.0287, 26.5465], [50.03, 26.5475], [50.0279, 26.5515], [50.0234, 26.5531], [50.0331, 26.5339], [50.0379, 26.536], [50.0399, 26.535], [50.0453, 26.5101], [50.0394, 26.509], [50.0438, 26.5036], [50.0506, 26.4994], [50.0548, 26.4913], [50.0612, 26.4901], [50.067, 26.475], [50.07, 26.4753], [50.0692, 26.4763], [50.0706, 26.4777], [50.0728, 26.476], [50.0715, 26.4735], [50.0765, 26.4761], [50.0758, 26.4746], [50.0771, 26.4739], [50.0716, 26.4732], [50.0719, 26.4713], [50.0692, 26.47], [50.0734, 26.4702], [50.0714, 26.4645], [50.054, 26.4549], [50.0165, 26.4481], [50.0098, 26.4487], [50.0007, 26.4636], [49.9888, 26.4736], [49.9689, 26.4852], [49.9639, 26.4863], [49.9412, 26.4977], [49.9323, 26.5043], [49.9293, 26.5051], [49.9182, 26.4985], [49.8972, 26.4918], [49.8955, 26.4932], [49.8972, 26.496], [49.9168, 26.5195], [49.9179, 26.5215], [49.9165, 26.5237], [49.8883, 26.5406], [49.8781, 26.5491], [49.8706, 26.5602], [49.8628, 26.566], [49.8354, 26.5818], [49.8274, 26.5926], [49.8174, 26.6183], [49.782, 26.6483], [49.7583, 26.6627], [49.751, 26.6689], [49.7496, 26.674], [49.7561, 26.6969], [49.7638, 26.6998], [49.7669, 26.7026], [49.7742, 26.7155], [49.7737, 26.7172]]]]}}]}