{"type": "FeatureCollection", "features": [{"type": "Feature", "properties": {"metro_id": "SAUM01", "metro_name": "Dammam", "n_members": 3, "n_missing": 1, "n_regions": 1, "regions": "Ash-Sharqīyah"}, "geometry": {"type": "MultiPolygon", "coordinates": [[[[50.132, 26.051], [50.1364, 26.0476], [50.1347, 26.0424], [50.1341, 26.0482], [50.132, 26.051]]], [[[50.1306, 26.0511], [50.1333, 26.0476], [50.1321, 26.0428], [50.1292, 26.051], [50.1306, 26.0511]]], [[[50.1391, 26.0475], [50.1384, 26.043], [50.1372, 26.0426], [50.1372, 26.0484], [50.1359, 26.0514], [50.1391, 26.0475]]], [[[50.1409, 26.0484], [50.141, 26.043], [50.1398, 26.0427], [50.1398, 26.0485], [50.1384, 26.0508], [50.139, 26.0515], [50.1409, 26.0484]]], [[[50.1255, 26.0489], [50.1209, 26.0502], [50.1216, 26.0526], [50.1237, 26.0514], [50.125, 26.0511], [50.1234, 26.0496], [50.126, 26.0501], [50.1255, 26.0489]]], [[[50.1664, 26.1284], [50.1603, 26.1301], [50.1624, 26.1366], [50.1677, 26.1353], [50.1676, 26.1322], [50.1694, 26.1321], [50.1695, 26.1306], [50.1669, 26.1311], [50.1664, 26.1284]]], [[[50.1945, 26.1555], [50.1959, 26.1574], [50.1959, 26.1572], [50.1952, 26.1561], [50.1945, 26.1555]]], [[[50.3128, 26.1884], [50.323, 26.1878], [50.3241, 26.1837], [50.3215, 26.1824], [50.3235, 26.1816], [50.32, 26.1818], [50.3128, 26.1884]]], [[[50.2337, 26.342], [50.233, 26.3412], [50.2332, 26.3435], [50.228, 26.3423], [50.2275, 26.3405], [50.228, 26.3424], [50.2238, 26.3416], [50.2244, 26.3387], [50.226, 26.3389], [50.2247, 26.3378], [50.2268, 26.3352], [50.226, 26.3335], [50.228, 26.3311], [50.2305, 26.319], [50.2298, 26.3087], [50.2334, 26.3085], [50.2337, 26.307], [50.231, 26.3063], [50.2297, 26.3085], [50.2283, 26.3073], [50.2274, 26.3023], [50.229, 26.3011], [50.2248, 26.2984], [50.2265, 26.2935], [50.2226, 26.2889], [50.2227, 26.2851], [50.2242, 26.2843], [50.2229, 26.284], [50.2232, 26.2791], [50.2206, 26.2752], [50.2214, 26.2723], [50.22, 26.272], [50.2189, 26.2656], [50.2201, 26.2556], [50.2213, 26.2554], [50.2202, 26.2555], [50.2204, 26.2413], [50.2228, 26.241], [50.2204, 26.2406], [50.2201, 26.2388], [50.2229, 26.2386], [50.223, 26.2381], [50.217, 26.2377], [50.217, 26.2362], [50.2199, 26.2354], [50.2161, 26.2344], [50.22, 26.2336], [50.2143, 26.232], [50.2202, 26.2314], [50.215, 26.2311], [50.215, 26.2298], [50.2203, 26.2294], [50.2143, 26.2275], [50.2205, 26.2271], [50.215, 26.2261], [50.2148, 26.2248], [50.2206, 26.2249], [50.214, 26.2233], [50.2204, 26.2234], [50.2204, 26.2222], [50.2157, 26.2209], [50.2203, 26.2211], [50.2215, 26.2198], [50.2202, 26.2188], [50.2217, 26.2182], [50.2274, 26.2182], [50.228, 26.2195], [50.2296, 26.2187], [50.23, 26.2224], [50.2316, 26.2234], [50.2299, 26.2235], [50.2306, 26.2251], [50.2321, 26.2252], [50.2319, 26.2236], [50.2372, 26.2246], [50.2402, 26.2218], [50.24, 26.2179], [50.2309, 26.2134], [50.2301, 26.2139], [50.2293, 26.2153], [50.2311, 26.2137], [50.2337, 26.2154], [50.2297, 26.2184], [50.2286, 26.2169], [50.2273, 26.218], [50.222, 26.2178], [50.2202, 26.2186], [50.2208, 26.1938], [50.2171, 26.1923], [50.2207, 26.1916], [50.2208, 26.1904], [50.2138, 26.1886], [50.2153, 26.1873], [50.2203, 26.1882], [50.2202, 26.1867], [50.2148, 26.186], [50.2206, 26.1843], [50.2137, 26.1841], [50.22, 26.1822], [50.2194, 26.181], [50.2164, 26.182], [50.2115, 26.178], [50.2065, 26.1728], [50.2068, 26.1717], [50.2058, 26.1695], [50.2066, 26.1718], [50.2053, 26.1722], [50.2003, 26.1652], [50.2008, 26.1638], [50.1997, 26.1646], [50.2005, 26.1633], [50.1983, 26.1627], [50.1993, 26.1616], [50.197, 26.1616], [50.1952, 26.1586], [50.1952, 26.1581], [50.1959, 26.1577], [50.1959, 26.1574], [50.1948, 26.1581], [50.1918, 26.1535], [50.191, 26.1539], [50.1884, 26.1516], [50.1848, 26.1512], [50.1846, 26.1505], [50.1839, 26.1504], [50.1833, 26.1529], [50.1921, 26.1586], [50.1931, 26.1631], [50.1919, 26.1628], [50.1903, 26.1673], [50.1843, 26.1738], [50.1772, 26.1763], [50.1769, 26.1796], [50.1766, 26.1771], [50.1726, 26.1748], [50.1699, 26.1753], [50.1697, 26.1795], [50.1693, 26.1794], [50.1696, 26.175], [50.167, 26.1733], [50.1651, 26.1651], [50.165, 26.1459], [50.1634, 26.1456], [50.1627, 26.1431], [50.1657, 26.1451], [50.1732, 26.1442], [50.1752, 26.1389], [50.1722, 26.1424], [50.171, 26.1382], [50.1699, 26.1393], [50.1687, 26.1372], [50.1704, 26.1354], [50.1625, 26.1372], [50.1616, 26.1364], [50.1597, 26.1298], [50.1659, 26.1274], [50.1635, 26.1238], [50.1645, 26.1218], [50.1629, 26.1216], [50.1637, 26.1195], [50.1626, 26.12], [50.1634, 26.1189], [50.1618, 26.117], [50.1632, 26.116], [50.1612, 26.1158], [50.1621, 26.1143], [50.1605, 26.1124], [50.1618, 26.112], [50.1607, 26.1123], [50.16, 26.1095], [50.1608, 26.1036], [50.1597, 26.102], [50.1607, 26.1019], [50.1613, 26.1006], [50.16, 26.1012], [50.1598, 26.0988], [50.162, 26.096], [50.1601, 26.0954], [50.1622, 26.0945], [50.1572, 26.088], [50.1573, 26.085], [50.1541, 26.0829], [50.154, 26.0796], [50.1523, 26.08], [50.1533, 26.0787], [50.152, 26.078], [50.154, 26.077], [50.1517, 26.0773], [50.1529, 26.0759], [50.151, 26.0741], [50.1524, 26.0737], [50.1528, 26.0733], [50.1513, 26.073], [50.1532, 26.072], [50.1509, 26.071], [50.1547, 26.0697], [50.1537, 26.0688], [50.1517, 26.0706], [50.1512, 26.0693], [50.1528, 26.0685], [50.1511, 26.069], [50.1505, 26.0673], [50.1526, 26.0588], [50.1558, 26.0576], [50.1541, 26.0563], [50.1565, 26.055], [50.1545, 26.0542], [50.1564, 26.0521], [50.1558, 26.0506], [50.1527, 26.0533], [50.1537, 26.0506], [50.1498, 26.0522], [50.1463, 26.0501], [50.1482, 26.0476], [50.157, 26.0493], [50.1544, 26.0481], [50.1568, 26.0441], [50.156, 26.0393], [50.1483, 26.0343], [50.1463, 26.0366], [50.1473, 26.0338], [50.1412, 26.032], [50.1383, 26.0295], [50.1322, 26.0298], [50.1336, 26.0356], [50.1319, 26.0416], [50.1344, 26.0412], [50.1382, 26.0376], [50.1366, 26.0414], [50.1444, 26.0382], [50.1473, 26.0395], [50.1463, 26.0418], [50.1442, 26.0389], [50.1387, 26.041], [50.143, 26.0424], [50.1411, 26.0466], [50.1419, 26.0501], [50.14, 26.0523], [50.137, 26.0523], [50.1391, 26.0555], [50.1416, 26.0549], [50.1416, 26.0568], [50.138, 26.0574], [50.1387, 26.0555], [50.1344, 26.0519], [50.1349, 26.0554], [50.1331, 26.0554], [50.1316, 26.0522], [50.1311, 26.0564], [50.1289, 26.0524], [50.128, 26.0563], [50.1266, 26.0534], [50.1246, 26.0556], [50.1219, 26.053], [50.1222, 26.0564], [50.1203, 26.0573], [50.12, 26.0544], [50.1185, 26.0543], [50.1177, 26.058], [50.1196, 26.0656], [50.1174, 26.0698], [50.1206, 26.0735], [50.121, 26.0754], [50.1195, 26.0751], [50.1215, 26.078], [50.1191, 26.0808], [50.1157, 26.0816], [50.115, 26.0879], [50.1177, 26.0879], [50.1181, 26.084], [50.12, 26.0857], [50.1199, 26.0888], [50.1169, 26.0891], [50.1181, 26.0905], [50.1166, 26.0924], [50.1163, 26.0889], [50.1136, 26.0883], [50.1141, 26.0908], [50.1129, 26.0908], [50.1123, 26.0913], [50.1139, 26.0918], [50.1127, 26.0932], [50.1113, 26.0923], [50.1125, 26.0933], [50.1116, 26.0943], [50.1106, 26.0931], [50.1111, 26.0966], [50.1076, 26.0987], [50.1081, 26.1019], [50.105, 26.108], [50.096, 26.1179], [50.0934, 26.1228], [50.0839, 26.125], [50.0795, 26.1245], [50.0778, 26.1272], [50.0771, 26.1375], [50.0744, 26.1445], [50.0846, 26.1481], [50.1082, 26.1504], [50.1214, 26.1765], [50.12, 26.2185], [50.1731, 26.2133], [50.1731, 26.216], [50.1969, 26.2417], [50.1969, 26.2518], [50.1912, 26.2591], [50.1798, 26.286], [50.1651, 26.2978], [50.1738, 26.3036], [50.1796, 26.3121], [50.1787, 26.3702], [50.1843, 26.3651], [50.1886, 26.3584], [50.206, 26.3662], [50.2068, 26.3633], [50.2163, 26.3651], [50.2173, 26.3641], [50.2357, 26.3746], [50.2389, 26.3682], [50.2349, 26.363], [50.2312, 26.3562], [50.2296, 26.3471], [50.2338, 26.3436], [50.2337, 26.342]]], [[[49.7737, 26.7172], [49.7706, 26.718], [49.7703, 26.7211], [49.7728, 26.734], [49.7751, 26.7382], [49.7821, 26.7416], [49.7818, 26.7449], [49.7728, 26.7508], [49.7703, 26.7545], [49.7686, 26.7659], [49.8316, 26.7706], [49.9132, 26.77], [49.9351, 26.7667], [49.9453, 26.7617], [49.9556, 26.7592], [49.9594, 26.7595], [49.9611, 26.7615], [49.9806, 26.7539], [49.9816, 26.751], [49.9791, 26.7474], [49.9783, 26.7422], [49.9852, 26.7265], [49.9776, 26.7038], [49.9651, 26.6851], [49.9686, 26.6806], [49.9871, 26.6696], [49.9879, 26.6627], [49.9861, 26.6604], [49.9878, 26.6609], [49.9901, 26.6579], [49.9992, 26.6619], [49.9933, 26.6591], [49.9927, 26.6522], [49.9959, 26.6552], [50.0087, 26.6563], [50.0125, 26.6551], [50.0145, 26.6542], [50.0158, 26.6508], [50.0108, 26.649], [50.0123, 26.6451], [50.0162, 26.6498], [50.0229, 26.6553], [50.0177, 26.6503], [50.0187, 26.6493], [50.0161, 26.6487], [50.013, 26.6451], [50.0132, 26.6421], [50.0117, 26.643], [50.0109, 26.6418], [50.012, 26.6382], [50.0093, 26.6359], [50.0067, 26.6277], [50.0141, 26.6226], [50.0218, 26.5901], [50.0213, 26.5854], [50.0171, 26.5817], [50.0215, 26.5708], [50.0225, 26.5709], [50.0211, 26.5818], [50.0279, 26.5845], [50.0285, 26.5905], [50.0363, 26.591], [50.0366, 26.5897], [50.0508, 26.5915], [50.0562, 26.5963], [50.0633, 26.5987], [50.0641, 26.5971], [50.0738, 26.5958], [50.0782, 26.5967], [50.0804, 26.6045], [50.0814, 26.6013], [50.0826, 26.6054], [50.0822, 26.6016], [50.0793, 26.5999], [50.0781, 26.5916], [50.0879, 26.5818], [50.0908, 26.5707], [50.0889, 26.5705], [50.0869, 26.5609], [50.0784, 26.5503], [50.0807, 26.5472], [50.0794, 26.5431], [50.0858, 26.5411], [50.087, 26.543], [50.0901, 26.542], [50.0886, 26.5379], [50.0856, 26.5388], [50.0885, 26.538], [50.09, 26.5419], [50.087, 26.5429], [50.0858, 26.5394], [50.0858, 26.5409], [50.0804, 26.5425], [50.0732, 26.5409], [50.0682, 26.5415], [50.0653, 26.5443], [50.0393, 26.5442], [50.0365, 26.5473], [50.036, 26.5561], [50.0298, 26.5553], [50.0309, 26.5562], [50.0241, 26.5628], [50.0227, 26.5701], [50.0216, 26.5701], [50.0228, 26.5628], [50.0217, 26.5549], [50.0287, 26.5556], [50.0229, 26.5537], [50.0299, 26.5533], [50.0329, 26.5509], [50.0299, 26.5497], [50.0319, 26.5457], [50.0349, 26.5467], [50.031, 26.5452], [50.0302, 26.547], [50.0287, 26.5465], [50.03, 26.5475], [50.0279, 26.5515], [50.0234, 26.5531], [50.0331, 26.5339], [50.0379, 26.536], [50.0399, 26.535], [50.0453, 26.5101], [50.0394, 26.509], [50.0438, 26.5036], [50.0506, 26.4994], [50.0548, 26.4913], [50.0612, 26.4901], [50.067, 26.475], [50.07, 26.4753], [50.0692, 26.4763], [50.0706, 26.4777], [50.0728, 26.476], [50.0715, 26.4735], [50.0765, 26.4761], [50.0758, 26.4746], [50.0771, 26.4739], [50.0716, 26.4732], [50.0719, 26.4713], [50.0692, 26.47], [50.0734, 26.4702], [50.0714, 26.4645], [50.054, 26.4549], [50.0165, 26.4481], [50.0098, 26.4487], [50.0007, 26.4636], [49.9888, 26.4736], [49.9689, 26.4852], [49.9639, 26.4863], [49.9412, 26.4977], [49.9323, 26.5043], [49.9293, 26.5051], [49.9182, 26.4985], [49.8972, 26.4918], [49.8955, 26.4932], [49.8972, 26.496], [49.9168, 26.5195], [49.9179, 26.5215], [49.9165, 26.5237], [49.8883, 26.5406], [49.8781, 26.5491], [49.8706, 26.5602], [49.8628, 26.566], [49.8354, 26.5818], [49.8274, 26.5926], [49.8174, 26.6183], [49.782, 26.6483], [49.7583, 26.6627], [49.751, 26.6689], [49.7496, 26.674], [49.7561, 26.6969], [49.7638, 26.6998], [49.7669, 26.7026], [49.7742, 26.7155], [49.7737, 26.7172]]]]}}, {"type": "Feature", "properties": {"metro_id": "SAUM02", "metro_name": "Jeddah", "n_members": 1, "n_missing": 0, "n_regions": 1, "regions": "Makkah"}, "geometry": {"type": "MultiPolygon", "coordinates": [[[[38.9526, 21.9332], [38.9525, 21.9319], [38.9485, 21.9305], [38.9479, 21.9319], [38.9526, 21.9332]]], [[[38.9563, 21.9325], [38.9534, 21.9319], [38.9528, 21.9332], [38.9562, 21.9339], [38.9563, 21.9325]]], [[[38.9462, 21.9337], [38.9478, 21.9357], [38.9512, 21.9361], [38.9504, 21.9349], [38.9472, 21.9333], [38.9462, 21.9337]]], [[[38.9535, 21.9349], [38.9513, 21.9354], [38.9526, 21.9367], [38.9556, 21.9363], [38.9535, 21.9349]]], [[[38.9453, 21.9413], [38.9475, 21.9377], [38.945, 21.9367], [38.9432, 21.9379], [38.9432, 21.9402], [38.9453, 21.9413]]], [[[38.9488, 21.9452], [38.9477, 21.9456], [38.9481, 21.9468], [38.9546, 21.9476], [38.9488, 21.9452]]], [[[38.9626, 21.9493], [38.9549, 21.9473], [38.9548, 21.9485], [38.9592, 21.9498], [38.9623, 21.9505], [38.9626, 21.9493]]], [[[38.9563, 21.9515], [38.9496, 21.9493], [38.9467, 21.9494], [38.953, 21.9519], [38.9563, 21.9515]]], [[[38.9568, 21.9512], [38.9564, 21.9524], [38.9612, 21.9536], [38.9617, 21.9524], [38.9568, 21.9512]]], [[[38.9458, 21.9525], [38.9525, 21.9547], [38.9531, 21.9536], [38.9507, 21.9529], [38.9467, 21.9517], [38.9458, 21.9525]]], [[[38.9608, 21.9563], [38.9534, 21.9538], [38.9528, 21.955], [38.9543, 21.9557], [38.9608, 21.9563]]], [[[38.9522, 21.9567], [38.946, 21.9551], [38.9453, 21.9568], [38.9536, 21.9582], [38.9522, 21.9567]]], [[[38.9636, 21.9623], [38.9646, 21.9586], [38.9667, 21.9528], [38.9622, 21.9525], [38.9637, 21.9553], [38.9609, 21.9571], [38.9627, 21.9586], [38.9598, 21.9602], [38.9636, 21.9623]]], [[[38.9377, 21.9591], [38.9383, 21.9614], [38.9412, 21.9611], [38.9417, 21.9557], [38.9377, 21.9591]]], [[[38.9577, 21.9581], [38.9539, 21.9578], [38.9563, 21.9596], [38.9597, 21.9594], [38.9577, 21.9581]]], [[[38.952, 21.9611], [38.952, 21.9602], [38.9469, 21.959], [38.9445, 21.9595], [38.952, 21.9611]]], [[[38.9589, 21.9621], [38.9527, 21.9603], [38.9522, 21.9616], [38.9589, 21.963], [38.9589, 21.9621]]], [[[38.977, 22.0253], [38.9814, 22.0268], [38.9817, 22.024], [38.9795, 22.0238], [38.9777, 22.0237], [38.977, 22.0253]]], [[[38.9593, 22.0302], [38.9593, 22.0312], [38.961, 22.0312], [38.9612, 22.0302], [38.9593, 22.0302]]], [[[38.9958, 22.0472], [38.996, 22.0448], [38.9988, 22.0446], [38.9996, 22.0348], [39.004, 22.0317], [39.004, 22.0273], [38.9984, 22.035], [38.9977, 22.0399], [38.9941, 22.0461], [38.9958, 22.0472]]], [[[38.9612, 22.041], [38.9615, 22.0392], [38.956, 22.0345], [38.956, 22.0363], [38.9585, 22.0371], [38.96, 22.0397], [38.9612, 22.041]]], [[[38.9687, 22.0471], [38.9651, 22.0441], [38.9629, 22.0415], [38.9637, 22.0446], [38.9687, 22.0471]]], [[[38.9864, 22.0451], [38.982, 22.0442], [38.9811, 22.0435], [38.9858, 22.0484], [38.9864, 22.0451]]], [[[38.9701, 22.0479], [38.9698, 22.0474], [38.9692, 22.0471], [38.9701, 22.0495], [38.9701, 22.0479]]], [[[38.9947, 22.0569], [38.99, 22.0513], [38.9898, 22.0482], [38.9871, 22.049], [38.9877, 22.0505], [38.9947, 22.0569]]], [[[38.9742, 22.0533], [38.9742, 22.0528], [38.9734, 22.0528], [38.9734, 22.0531], [38.9742, 22.0533]]], [[[38.9527, 22.0524], [38.9501, 22.0527], [38.9515, 22.0599], [38.9568, 22.068], [38.9606, 22.0644], [38.9603, 22.0617], [38.9527, 22.0524]]], [[[38.9808, 22.078], [38.9784, 22.0715], [38.9772, 22.0716], [38.9781, 22.0739], [38.9795, 22.0775], [38.9808, 22.078]]], [[[38.9717, 22.1455], [38.9723, 22.145], [38.9723, 22.1447], [38.9714, 22.1445], [38.9717, 22.1455]]], [[[38.9819, 22.2545], [38.9822, 22.255], [38.983, 22.2558], [38.983, 22.254], [38.9819, 22.2545]]], [[[39.0531, 21.7755], [39.0531, 21.7758], [39.0537, 21.7758], [39.0537, 21.7755], [39.0531, 21.7755]]], [[[39.0178, 21.8246], [39.0229, 21.8315], [39.024, 21.8296], [39.0227, 21.8284], [39.018, 21.8243], [39.0178, 21.8246]]], [[[39.0049, 22.0258], [39.0069, 22.0204], [39.0076, 22.0181], [39.0032, 22.0271], [39.0049, 22.0258]]], [[[39.0065, 22.035], [39.0065, 22.0361], [39.0071, 22.0353], [39.0068, 22.035], [39.0065, 22.035]]], [[[39.0016, 22.0556], [39.0038, 22.06], [39.0049, 22.0562], [39.0024, 22.0518], [39.0039, 22.0472], [39.0005, 22.0487], [39.0007, 22.0433], [39.0002, 22.0433], [38.9988, 22.0538], [39.0016, 22.0556]]], [[[39.006, 22.058], [39.0054, 22.0582], [39.006, 22.0587], [39.006, 22.058]]], [[[39.0339, 22.0757], [39.0339, 22.0729], [39.0364, 22.0712], [39.0375, 22.0689], [39.0411, 22.0685], [39.0422, 22.0644], [39.0358, 22.0701], [39.0328, 22.0693], [39.0308, 22.0744], [39.0339, 22.0757]]], [[[39.0281, 22.0711], [39.0284, 22.0724], [39.0284, 22.0729], [39.0297, 22.0721], [39.0281, 22.0711]]], [[[39.0278, 22.0711], [39.0271, 22.0721], [39.0259, 22.0724], [39.0275, 22.0734], [39.0278, 22.0711]]], [[[39.0129, 22.0737], [39.0115, 22.0739], [39.0112, 22.075], [39.0126, 22.075], [39.0129, 22.0737]]], [[[39.0173, 22.0779], [39.019, 22.0763], [39.0187, 22.0755], [39.0162, 22.0752], [39.0173, 22.0779]]], [[[39.0217, 22.0781], [39.0214, 22.0788], [39.0231, 22.0796], [39.0226, 22.0788], [39.0223, 22.0788], [39.0217, 22.0781]]], [[[39.0237, 22.0801], [39.0231, 22.0799], [39.0234, 22.0806], [39.0237, 22.0806], [39.0237, 22.0801]]], [[[39.0187, 22.0819], [39.0206, 22.0824], [39.0212, 22.0817], [39.0187, 22.0817], [39.0187, 22.0819]]], [[[39.0303, 22.0863], [39.0311, 22.0866], [39.0308, 22.086], [39.0311, 22.0853], [39.0303, 22.0863]]], [[[39.0329, 22.0873], [39.0337, 22.0897], [39.032, 22.0935], [39.0349, 22.0944], [39.0359, 22.0872], [39.0339, 22.0859], [39.0329, 22.0873]]], [[[39.0298, 22.0922], [39.0299, 22.0926], [39.0313, 22.0908], [39.0309, 22.0906], [39.0298, 22.0922]]], [[[39.0143, 22.0956], [39.0145, 22.0951], [39.0137, 22.0951], [39.0143, 22.0956]]], [[[39.0159, 22.0989], [39.0176, 22.0994], [39.0165, 22.0976], [39.0159, 22.0976], [39.0159, 22.0989]]], [[[39.0118, 22.1087], [39.0121, 22.1087], [39.0121, 22.1072], [39.0112, 22.1066], [39.0118, 22.1087]]], [[[39.0123, 22.1095], [39.0134, 22.112], [39.014, 22.1131], [39.0143, 22.1105], [39.0123, 22.1095]]], [[[39.0281, 22.1259], [39.0275, 22.1261], [39.027, 22.1265], [39.027, 22.1272], [39.0281, 22.1259]]], [[[39.0259, 22.1427], [39.0264, 22.144], [39.0264, 22.1414], [39.0259, 22.1414], [39.0259, 22.1427]]], [[[39.0331, 22.1525], [39.0306, 22.1512], [39.0284, 22.1496], [39.0317, 22.1568], [39.0331, 22.1525]]], [[[39.0527, 22.1576], [39.0516, 22.1574], [39.0519, 22.1586], [39.0521, 22.1586], [39.0527, 22.1576]]], [[[39.0541, 22.162], [39.0549, 22.1612], [39.0546, 22.1602], [39.0535, 22.161], [39.0541, 22.162]]], [[[39.0369, 22.1666], [39.0363, 22.1682], [39.0367, 22.1692], [39.0375, 22.1695], [39.0369, 22.1666]]], [[[39.0364, 22.1852], [39.0395, 22.1857], [39.0362, 22.1849], [39.0379, 22.1824], [39.0347, 22.1833], [39.0335, 22.18], [39.0347, 22.1879], [39.0364, 22.1852]]], [[[39.0367, 22.187], [39.0358, 22.1901], [39.0381, 22.1901], [39.0385, 22.1872], [39.0383, 22.1862], [39.0367, 22.187]]], [[[39.028, 22.2532], [39.0283, 22.2529], [39.0281, 22.2525], [39.0276, 22.2524], [39.028, 22.2532]]], [[[39.1228, 21.3364], [39.1229, 21.3366], [39.1232, 21.3366], [39.1233, 21.3364], [39.1228, 21.3364]]], [[[39.1187, 21.355], [39.1197, 21.3542], [39.1185, 21.3529], [39.1181, 21.3516], [39.1187, 21.355]]], [[[39.1373, 21.3539], [39.1371, 21.3534], [39.1365, 21.3537], [39.1373, 21.3539]]], [[[39.1376, 21.3548], [39.1371, 21.3552], [39.1378, 21.3553], [39.1387, 21.3557], [39.1376, 21.3548]]], [[[39.1464, 21.3557], [39.1467, 21.355], [39.1461, 21.3552], [39.1461, 21.3557], [39.1464, 21.3557]]], [[[39.1354, 21.357], [39.1354, 21.3565], [39.1351, 21.3565], [39.1351, 21.357], [39.1354, 21.357]]], [[[39.1464, 21.3588], [39.1437, 21.3588], [39.1445, 21.3592], [39.1464, 21.3591], [39.1464, 21.3588]]], [[[39.1494, 21.3647], [39.1494, 21.365], [39.15, 21.365], [39.1503, 21.3645], [39.1494, 21.3647]]], [[[39.146, 21.3848], [39.1502, 21.3918], [39.1522, 21.3921], [39.1456, 21.383], [39.146, 21.3848]]], [[[39.1488, 21.4312], [39.1507, 21.4225], [39.1491, 21.4223], [39.1485, 21.4246], [39.1482, 21.4301], [39.1488, 21.4312]]], [[[39.134, 21.5047], [39.1344, 21.5092], [39.1349, 21.5052], [39.1363, 21.5051], [39.1359, 21.5034], [39.134, 21.5047]]], [[[39.1351, 21.5134], [39.1375, 21.5123], [39.1376, 21.5076], [39.1358, 21.5061], [39.1351, 21.5134]]], [[[39.1379, 21.5133], [39.1376, 21.5137], [39.1378, 21.5139], [39.1381, 21.5133], [39.1379, 21.5133]]], [[[39.1446, 21.5206], [39.1445, 21.5175], [39.1391, 21.5215], [39.1413, 21.5317], [39.1431, 21.5325], [39.1466, 21.5295], [39.1452, 21.5261], [39.1467, 21.5223], [39.1446, 21.5206]]], [[[39.1069, 21.5846], [39.1055, 21.5877], [39.1074, 21.5849], [39.1082, 21.5775], [39.1069, 21.5846]]], [[[39.1038, 21.6249], [39.1036, 21.625], [39.1037, 21.6253], [39.1038, 21.6251], [39.1038, 21.6249]]], [[[39.0937, 21.6733], [39.094, 21.6742], [39.0941, 21.6734], [39.0945, 21.6721], [39.0937, 21.6733]]], [[[39.1217, 21.7492], [39.1217, 21.7484], [39.1215, 21.7484], [39.1215, 21.7492], [39.1217, 21.7492]]], [[[39.1369, 21.7638], [39.1374, 21.766], [39.1387, 21.769], [39.1415, 21.7699], [39.1369, 21.7638]]], [[[39.1433, 21.7696], [39.1417, 21.77], [39.1455, 21.7722], [39.1465, 21.7715], [39.1433, 21.7696]]], [[[39.071, 22.258], [39.0718, 22.2621], [39.0724, 22.2634], [39.0718, 22.2596], [39.071, 22.258]]], [[[39.0801, 22.2617], [39.08, 22.2623], [39.080481818181816, 22.26345636363635], [39.0801, 22.2617]]], [[[39.0806, 22.264], [39.0805, 22.2635], [39.080481818181816, 22.26345636363635], [39.0806, 22.264]]], [[[39.0813, 22.2663], [39.0808, 22.2654], [39.0807, 22.2666], [39.0815, 22.2676], [39.0813, 22.2663]]], [[[39.0856, 22.2669], [39.0854, 22.2666], [39.0849, 22.267], [39.0854, 22.2673], [39.0856, 22.2669]]], [[[39.0829, 22.272], [39.0832, 22.272], [39.0835, 22.2707], [39.083, 22.2702], [39.0829, 22.272]]], [[[39.0825, 22.2714], [39.0819, 22.2693], [39.0808, 22.2714], [39.0807, 22.2731], [39.0825, 22.2714]]], [[[39.085, 22.282], [39.0826, 22.2755], [39.0833, 22.2726], [39.0824, 22.2762], [39.0833, 22.2793], [39.085, 22.282]]], [[[39.0967, 22.2848], [39.0968, 22.2849], [39.097, 22.2848], [39.0968, 22.2847], [39.0967, 22.2848]]], [[[39.0864, 22.2903], [39.0869, 22.2904], [39.0866, 22.2901], [39.0864, 22.29], [39.0864, 22.2903]]], [[[39.355, 20.8927], [39.3548, 20.8927], [39.3548, 20.8929], [39.355, 20.8929], [39.355, 20.8927]]], [[[39.3724, 20.8979], [39.3723, 20.8971], [39.3718, 20.8977], [39.3724, 20.8979]]], [[[39.3701, 20.8975], [39.3701, 20.8978], [39.3707, 20.8978], [39.3707, 20.8973], [39.3701, 20.8975]]], [[[39.3518, 20.8973], [39.3548, 20.8932], [39.3482, 20.8991], [39.3452, 20.8994], [39.3427, 20.9027], [39.349, 20.8992], [39.3518, 20.8973]]], [[[39.3641, 20.8973], [39.3652, 20.8992], [39.3681, 20.8986], [39.3665, 20.8979], [39.3655, 20.8983], [39.3641, 20.8973]]], [[[39.3608, 20.9019], [39.3605, 20.9013], [39.36, 20.9013], [39.3597, 20.9017], [39.3608, 20.9019]]], [[[39.348, 20.9141], [39.3474, 20.9151], [39.3493, 20.9153], [39.3502, 20.9143], [39.348, 20.9141]]], [[[39.3455, 20.9174], [39.3452, 20.917], [39.3447, 20.9174], [39.3455, 20.9174]]], [[[39.3485, 20.9171], [39.3485, 20.9174], [39.3491, 20.9177], [39.3491, 20.9171], [39.3485, 20.9171]]], [[[39.3444, 20.9177], [39.343, 20.9174], [39.343, 20.9177], [39.3441, 20.9179], [39.3444, 20.9177]]], [[[39.3502, 20.9179], [39.3502, 20.9184], [39.3507, 20.9184], [39.3507, 20.9177], [39.3502, 20.9179]]], [[[39.3441, 20.92], [39.3441, 20.9205], [39.3447, 20.9208], [39.3447, 20.92], [39.3441, 20.92]]], [[[39.2487, 21.0489], [39.2487, 21.0494], [39.2495, 21.0494], [39.2498, 21.0489], [39.2487, 21.0489]]], [[[39.2484, 21.0556], [39.2486, 21.053], [39.2446, 21.0517], [39.2435, 21.0541], [39.2484, 21.0556]]], [[[39.2361, 21.0659], [39.2361, 21.0664], [39.2367, 21.0664], [39.2369, 21.0659], [39.2361, 21.0659]]], [[[39.2358, 21.067], [39.2353, 21.067], [39.2353, 21.0675], [39.2358, 21.0675], [39.2358, 21.067]]], [[[39.2379, 21.0711], [39.238, 21.0675], [39.2347, 21.0681], [39.2315, 21.0667], [39.2284, 21.0711], [39.2312, 21.0695], [39.2334, 21.0729], [39.2359, 21.0733], [39.2379, 21.0711]]], [[[39.2295, 21.0716], [39.2304, 21.0716], [39.2304, 21.0711], [39.2295, 21.0711], [39.2295, 21.0716]]], [[[39.1516, 21.3629], [39.1522, 21.3629], [39.1525, 21.3622], [39.1516, 21.3622], [39.1516, 21.3629]]], [[[39.1627, 21.3728], [39.1621, 21.3706], [39.1623, 21.3694], [39.1597, 21.3683], [39.1627, 21.3728]]], [[[39.1698, 21.3778], [39.1715, 21.3753], [39.1703, 21.3735], [39.169, 21.3763], [39.1698, 21.3778]]], [[[39.173, 21.3814], [39.1723, 21.3796], [39.1697, 21.3805], [39.1711, 21.3808], [39.1723, 21.3817], [39.173, 21.3814]]], [[[39.1641, 21.3837], [39.1642, 21.3837], [39.1644, 21.3839], [39.1645, 21.3836], [39.1641, 21.3837]]], [[[39.1723, 21.3915], [39.1723, 21.3923], [39.1726, 21.3923], [39.1731, 21.3912], [39.1723, 21.3915]]], [[[39.1759, 21.3917], [39.1759, 21.392], [39.1767, 21.392], [39.1767, 21.3917], [39.1759, 21.3917]]], [[[39.157, 21.3998], [39.1553, 21.3993], [39.156, 21.4012], [39.1576, 21.3997], [39.157, 21.3998]]], [[[39.1789, 21.3999], [39.1778, 21.4], [39.1777, 21.4006], [39.1788, 21.4014], [39.1789, 21.3999]]], [[[39.1779, 21.4075], [39.1775, 21.4078], [39.1772, 21.4082], [39.1771, 21.4091], [39.1779, 21.4075]]], [[[39.1631, 21.4291], [39.1634, 21.4298], [39.1643, 21.4299], [39.1645, 21.4291], [39.1631, 21.4291]]], [[[39.245, 22.0427], [39.2441, 22.0319], [39.2398, 22.0247], [39.239, 22.0195], [39.226, 22.003], [39.2242, 21.9929], [39.2246, 21.9431], [39.2167, 21.9161], [39.2122, 21.9064], [39.2104, 21.8888], [39.2149, 21.8783], [39.236, 21.8491], [39.241, 21.8265], [39.2432, 21.7439], [39.2462, 21.7359], [39.2515, 21.7297], [39.2535, 21.7246], [39.2452, 21.7162], [39.2435, 21.7077], [39.2425, 21.7016], [39.2439, 21.6928], [39.2411, 21.6705], [39.2426, 21.6627], [39.2485, 21.6596], [39.2757, 21.6688], [39.2783, 21.6714], [39.2872, 21.6659], [39.2918, 21.6703], [39.2996, 21.6734], [39.3035, 21.6774], [39.3242, 21.6887], [39.3396, 21.6916], [39.3392, 21.6981], [39.3415, 21.6976], [39.3431, 21.6997], [39.345, 21.7102], [39.37, 21.7166], [39.3786, 21.7159], [39.3801, 21.7079], [39.3773, 21.6787], [39.3713, 21.6524], [39.3697, 21.6353], [39.3713, 21.6169], [39.376, 21.6105], [39.3679, 21.604], [39.3551, 21.598], [39.3484, 21.586], [39.3529, 21.586], [39.3656, 21.58], [39.3724, 21.5725], [39.3822, 21.5665], [39.3874, 21.559], [39.3957, 21.5522], [39.4347, 21.5312], [39.4542, 21.5154], [39.4535, 21.5019], [39.4467, 21.4989], [39.446, 21.4816], [39.4377, 21.4734], [39.4325, 21.4719], [39.4167, 21.4553], [39.4084, 21.4523], [39.4084, 21.4448], [39.4062, 21.4388], [39.3927, 21.4328], [39.3766, 21.3987], [39.377, 21.3905], [39.382, 21.3855], [39.4063, 21.3745], [39.4095, 21.3709], [39.4084, 21.3641], [39.3945, 21.3613], [39.3791, 21.3527], [39.3677, 21.3498], [39.3699, 21.3663], [39.3659, 21.3834], [39.3588, 21.3887], [39.3559, 21.3962], [39.3524, 21.3948], [39.3472, 21.4006], [39.3356, 21.3885], [39.3326, 21.3885], [39.3266, 21.378], [39.3258, 21.3638], [39.3296, 21.3487], [39.3288, 21.3405], [39.3183, 21.3367], [39.3138, 21.3367], [39.3108, 21.3337], [39.3206, 21.321], [39.3191, 21.3067], [39.3364, 21.2894], [39.3619, 21.2714], [39.3619, 21.2684], [39.3551, 21.2616], [39.3551, 21.2526], [39.3559, 21.2474], [39.3596, 21.2406], [39.3619, 21.2204], [39.3699, 21.2006], [39.3608, 21.1842], [39.355, 21.1697], [39.3536, 21.1601], [39.3541, 21.1338], [39.3643, 21.0856], [39.3696, 21.0688], [39.3756, 21.0345], [39.3806, 21.0272], [39.3843, 21.0152], [39.3936, 21.002], [39.3925, 20.9761], [39.3976, 20.9584], [39.3979, 20.9462], [39.3927, 20.9205], [39.3857, 20.9065], [39.3726, 20.8916], [39.37, 20.8955], [39.3742, 20.8972], [39.3714, 20.902], [39.363, 20.9048], [39.3622, 20.9099], [39.3534, 20.9138], [39.3526, 20.9171], [39.3477, 20.9233], [39.3436, 20.9239], [39.3428, 20.9184], [39.3398, 20.9197], [39.3389, 20.9218], [39.3329, 20.9227], [39.3299, 20.9216], [39.3271, 20.918], [39.3225, 20.9177], [39.3156, 20.9231], [39.3077, 20.926], [39.3081, 20.9311], [39.2883, 20.9549], [39.2843, 20.9574], [39.2787, 20.9693], [39.2712, 20.9804], [39.2726, 20.9886], [39.277, 20.994], [39.2759, 20.9992], [39.2768, 21.0126], [39.2709, 21.0187], [39.2673, 21.0193], [39.2659, 21.0252], [39.264, 21.0262], [39.2665, 21.028], [39.2668, 21.0347], [39.2613, 21.0331], [39.2575, 21.0342], [39.2577, 21.0396], [39.2506, 21.0458], [39.2499, 21.0551], [39.2454, 21.0596], [39.2429, 21.059], [39.2446, 21.06], [39.2428, 21.0657], [39.241, 21.0654], [39.2413, 21.0636], [39.2401, 21.0649], [39.2419, 21.0682], [39.2383, 21.067], [39.2388, 21.0698], [39.241, 21.0703], [39.2391, 21.0752], [39.2303, 21.0734], [39.2295, 21.0796], [39.2254, 21.0805], [39.2227, 21.0801], [39.2235, 21.0765], [39.2221, 21.0765], [39.2208, 21.0827], [39.2147, 21.0925], [39.2073, 21.0966], [39.2024, 21.094], [39.1983, 21.0965], [39.1964, 21.0958], [39.1931, 21.101], [39.1902, 21.1016], [39.1911, 21.1039], [39.1869, 21.1162], [39.189, 21.1151], [39.19, 21.117], [39.1798, 21.1282], [39.1779, 21.1332], [39.1786, 21.1404], [39.1775, 21.1391], [39.1745, 21.1414], [39.1719, 21.1536], [39.1685, 21.154], [39.1697, 21.1551], [39.1675, 21.1646], [39.1681, 21.1635], [39.1707, 21.1644], [39.1704, 21.1704], [39.1731, 21.1766], [39.1698, 21.1736], [39.1683, 21.1753], [39.1699, 21.1827], [39.1721, 21.1834], [39.1712, 21.1854], [39.174, 21.186], [39.1744, 21.1891], [39.1715, 21.1946], [39.1676, 21.1978], [39.1697, 21.2003], [39.169, 21.2021], [39.1521, 21.185], [39.153, 21.1867], [39.1504, 21.1892], [39.162, 21.2039], [39.1617, 21.2205], [39.1556, 21.2288], [39.1441, 21.2332], [39.1398, 21.2404], [39.1371, 21.2507], [39.1299, 21.2589], [39.1285, 21.2659], [39.1211, 21.271], [39.1223, 21.2728], [39.1117, 21.2934], [39.1042, 21.3001], [39.1031, 21.3107], [39.105, 21.3143], [39.1059, 21.3261], [39.0991, 21.3234], [39.0986, 21.3236], [39.1054, 21.3263], [39.1118, 21.3317], [39.1213, 21.3334], [39.1176, 21.3376], [39.1149, 21.3381], [39.108, 21.3369], [39.1079, 21.3337], [39.1065, 21.3338], [39.1074, 21.3386], [39.1062, 21.3415], [39.1081, 21.346], [39.1115, 21.349], [39.1142, 21.3484], [39.1175, 21.3418], [39.1164, 21.3391], [39.1216, 21.3336], [39.1282, 21.3361], [39.1269, 21.3377], [39.1288, 21.3359], [39.1305, 21.3365], [39.1319, 21.3402], [39.1248, 21.3425], [39.1262, 21.3411], [39.1263, 21.3403], [39.1246, 21.3426], [39.126, 21.3463], [39.1261, 21.3489], [39.1246, 21.3486], [39.1253, 21.3465], [39.1243, 21.3485], [39.1248, 21.3531], [39.1277, 21.3595], [39.1235, 21.3596], [39.1291, 21.3609], [39.1332, 21.3665], [39.1355, 21.3655], [39.1359, 21.362], [39.1317, 21.3611], [39.1292, 21.3585], [39.1269, 21.3532], [39.1293, 21.3508], [39.1295, 21.3481], [39.1291, 21.346], [39.1294, 21.3485], [39.127, 21.3485], [39.127, 21.3458], [39.1326, 21.3448], [39.1398, 21.3461], [39.1583, 21.3544], [39.1697, 21.3644], [39.169, 21.3656], [39.1726, 21.369], [39.1732, 21.3734], [39.1762, 21.3755], [39.1758, 21.3789], [39.1787, 21.383], [39.1675, 21.3886], [39.1701, 21.3903], [39.1721, 21.3892], [39.1711, 21.3868], [39.1748, 21.3852], [39.176, 21.3873], [39.1767, 21.3865], [39.1751, 21.3851], [39.1788, 21.3834], [39.1838, 21.3923], [39.1808, 21.3972], [39.1829, 21.3984], [39.1834, 21.401], [39.1872, 21.4013], [39.1864, 21.4033], [39.1831, 21.4026], [39.182, 21.405], [39.1779, 21.4058], [39.1775, 21.4039], [39.1767, 21.4073], [39.1821, 21.4053], [39.1823, 21.409], [39.184, 21.4108], [39.1855, 21.4045], [39.1873, 21.4034], [39.1896, 21.4102], [39.1898, 21.4119], [39.1881, 21.4129], [39.1742, 21.4132], [39.1775, 21.4134], [39.174, 21.4159], [39.1739, 21.4184], [39.1702, 21.4185], [39.1781, 21.42], [39.1769, 21.4262], [39.1746, 21.4259], [39.1753, 21.4212], [39.1728, 21.4211], [39.1747, 21.4216], [39.1745, 21.4229], [39.1726, 21.4227], [39.1745, 21.4232], [39.1743, 21.4245], [39.1723, 21.4243], [39.1742, 21.4247], [39.174, 21.4261], [39.1721, 21.4261], [39.174, 21.4263], [39.1724, 21.4277], [39.1736, 21.4287], [39.1723, 21.4288], [39.1735, 21.4299], [39.1715, 21.4298], [39.1734, 21.4301], [39.1732, 21.432], [39.1717, 21.432], [39.173, 21.4331], [39.1714, 21.4335], [39.1729, 21.4337], [39.1725, 21.4376], [39.1707, 21.4385], [39.1687, 21.445], [39.1621, 21.4439], [39.1631, 21.4349], [39.1643, 21.4344], [39.1608, 21.432], [39.1595, 21.4434], [39.1557, 21.4428], [39.1562, 21.4293], [39.1545, 21.4288], [39.1545, 21.4447], [39.1559, 21.4435], [39.1599, 21.4453], [39.1746, 21.4467], [39.1548, 21.4451], [39.1543, 21.4476], [39.1595, 21.4482], [39.1575, 21.4635], [39.1609, 21.4627], [39.1638, 21.4473], [39.1685, 21.448], [39.1651, 21.4663], [39.1584, 21.468], [39.158, 21.4698], [39.1643, 21.4701], [39.1651, 21.4714], [39.1622, 21.4823], [39.1574, 21.4816], [39.1586, 21.4748], [39.1536, 21.4691], [39.1519, 21.4745], [39.1495, 21.4741], [39.1513, 21.4686], [39.1493, 21.4681], [39.1479, 21.4742], [39.152, 21.475], [39.1507, 21.4834], [39.1546, 21.4847], [39.1534, 21.4912], [39.1667, 21.493], [39.1689, 21.4867], [39.1777, 21.4857], [39.1772, 21.4807], [39.1792, 21.486], [39.1851, 21.4911], [39.1848, 21.494], [39.1827, 21.4937], [39.1811, 21.4883], [39.1783, 21.4866], [39.1717, 21.4881], [39.1719, 21.49], [39.1738, 21.49], [39.1702, 21.492], [39.1717, 21.4932], [39.1686, 21.4967], [39.169, 21.4989], [39.1747, 21.5005], [39.1755, 21.5026], [39.1738, 21.5035], [39.1651, 21.4973], [39.1629, 21.4998], [39.1589, 21.4994], [39.1627, 21.5034], [39.1634, 21.5073], [39.159, 21.5124], [39.157, 21.5115], [39.1579, 21.5088], [39.1553, 21.51], [39.1527, 21.5183], [39.1496, 21.5227], [39.1564, 21.5302], [39.158, 21.5302], [39.1566, 21.5304], [39.1561, 21.5344], [39.1471, 21.5335], [39.1451, 21.5349], [39.143, 21.5336], [39.1407, 21.5349], [39.1396, 21.5269], [39.135, 21.5146], [39.1332, 21.5163], [39.1326, 21.5147], [39.1304, 21.5157], [39.1306, 21.514], [39.1299, 21.5156], [39.1286, 21.5151], [39.1312, 21.5091], [39.1278, 21.5157], [39.1341, 21.5259], [39.1299, 21.522], [39.1284, 21.5224], [39.1315, 21.5253], [39.1302, 21.5273], [39.1277, 21.5278], [39.1252, 21.5237], [39.1266, 21.5272], [39.1215, 21.5292], [39.117, 21.5356], [39.1156, 21.5349], [39.1166, 21.536], [39.1115, 21.534], [39.1163, 21.5363], [39.1164, 21.5379], [39.1154, 21.5402], [39.1137, 21.5393], [39.1122, 21.5408], [39.112, 21.5423], [39.1155, 21.5437], [39.1146, 21.5455], [39.1112, 21.5447], [39.1136, 21.5503], [39.1127, 21.5551], [39.1141, 21.5557], [39.1125, 21.5557], [39.111, 21.5592], [39.1082, 21.5853], [39.1054, 21.5895], [39.1052, 21.597], [39.1072, 21.6035], [39.1061, 21.6056], [39.1069, 21.6152], [39.1053, 21.6152], [39.1067, 21.616], [39.1052, 21.6238], [39.1038, 21.6243], [39.104, 21.6265], [39.102, 21.6306], [39.103, 21.6333], [39.1005, 21.6443], [39.1019, 21.6481], [39.1004, 21.6486], [39.0986, 21.6548], [39.1003, 21.659], [39.0985, 21.6564], [39.0995, 21.6591], [39.0974, 21.6582], [39.0965, 21.6603], [39.0999, 21.6617], [39.0963, 21.661], [39.0996, 21.6626], [39.0961, 21.6619], [39.0983, 21.6632], [39.0958, 21.6635], [39.0981, 21.6652], [39.0972, 21.6662], [39.0953, 21.6649], [39.0953, 21.6664], [39.0977, 21.6667], [39.0965, 21.6678], [39.0984, 21.6669], [39.0969, 21.6739], [39.0959, 21.6757], [39.0929, 21.675], [39.093, 21.6763], [39.0939, 21.6754], [39.0964, 21.6771], [39.0948, 21.6807], [39.0926, 21.6802], [39.0926, 21.6781], [39.0919, 21.6802], [39.0941, 21.6815], [39.0933, 21.6835], [39.0914, 21.6832], [39.0914, 21.684], [39.0932, 21.6836], [39.094, 21.6855], [39.0916, 21.6863], [39.0895, 21.6893], [39.0914, 21.6912], [39.0903, 21.6924], [39.089, 21.6907], [39.0885, 21.6921], [39.0903, 21.6931], [39.0883, 21.6929], [39.0896, 21.6949], [39.0877, 21.696], [39.0908, 21.6962], [39.0902, 21.6978], [39.0873, 21.6969], [39.0884, 21.6996], [39.087, 21.6984], [39.0865, 21.6999], [39.089, 21.7014], [39.0863, 21.7009], [39.0884, 21.702], [39.0863, 21.7024], [39.0885, 21.7027], [39.0859, 21.7029], [39.0867, 21.7059], [39.0878, 21.706], [39.0869, 21.7037], [39.0886, 21.7054], [39.0945, 21.706], [39.0965, 21.7089], [39.0971, 21.7153], [39.1, 21.7162], [39.0995, 21.7173], [39.1016, 21.7164], [39.1014, 21.718], [39.1027, 21.7169], [39.1042, 21.7181], [39.1052, 21.717], [39.1135, 21.7205], [39.1178, 21.7332], [39.1273, 21.7407], [39.1322, 21.7476], [39.1324, 21.7544], [39.1402, 21.7677], [39.1464, 21.7698], [39.1571, 21.7788], [39.1613, 21.7776], [39.1612, 21.7782], [39.1574, 21.7802], [39.1479, 21.7725], [39.1446, 21.7728], [39.1375, 21.7694], [39.1367, 21.7661], [39.132, 21.7653], [39.1316, 21.7618], [39.1333, 21.7603], [39.1313, 21.7598], [39.1307, 21.756], [39.1293, 21.7562], [39.1293, 21.7511], [39.1249, 21.7503], [39.1249, 21.748], [39.1244, 21.7494], [39.1234, 21.7481], [39.1234, 21.7503], [39.1195, 21.75], [39.1193, 21.7481], [39.117, 21.7488], [39.1169, 21.7462], [39.1152, 21.7458], [39.1152, 21.7389], [39.1121, 21.738], [39.1124, 21.7354], [39.1108, 21.7354], [39.1109, 21.7305], [39.1125, 21.7304], [39.1104, 21.7295], [39.1122, 21.7268], [39.1115, 21.7235], [39.1066, 21.7254], [39.1064, 21.7214], [39.1053, 21.7244], [39.1038, 21.7224], [39.0974, 21.7205], [39.0948, 21.7171], [39.0941, 21.7099], [39.0924, 21.7078], [39.0827, 21.7096], [39.0846, 21.7109], [39.0832, 21.7125], [39.0814, 21.7114], [39.0831, 21.7126], [39.0816, 21.7153], [39.0796, 21.7145], [39.0806, 21.7155], [39.0784, 21.7193], [39.0795, 21.7202], [39.0773, 21.722], [39.0782, 21.724], [39.076, 21.7271], [39.074, 21.726], [39.0751, 21.7283], [39.0728, 21.7276], [39.0728, 21.7306], [39.0713, 21.7289], [39.0708, 21.7294], [39.0727, 21.7309], [39.0703, 21.7301], [39.072, 21.7314], [39.0699, 21.7306], [39.0713, 21.7321], [39.0686, 21.7323], [39.0688, 21.7337], [39.0677, 21.7335], [39.0693, 21.7347], [39.0676, 21.7338], [39.0661, 21.7356], [39.0672, 21.7361], [39.0656, 21.7368], [39.0673, 21.7377], [39.0649, 21.7375], [39.0661, 21.7394], [39.0643, 21.7386], [39.0656, 21.7409], [39.0636, 21.7397], [39.0649, 21.7408], [39.0623, 21.7413], [39.064, 21.743], [39.062, 21.7418], [39.0639, 21.7435], [39.0627, 21.7451], [39.061, 21.7446], [39.0623, 21.7464], [39.0614, 21.7477], [39.0592, 21.7464], [39.0597, 21.7497], [39.0575, 21.749], [39.0581, 21.7513], [39.0561, 21.7503], [39.0572, 21.7531], [39.0545, 21.7528], [39.0556, 21.7554], [39.0528, 21.7554], [39.0536, 21.7581], [39.0512, 21.7644], [39.0498, 21.7642], [39.0517, 21.7649], [39.0495, 21.7667], [39.0517, 21.767], [39.0506, 21.768], [39.052, 21.7683], [39.0523, 21.7706], [39.0476, 21.7709], [39.0476, 21.7716], [39.052, 21.7709], [39.0523, 21.7721], [39.049, 21.7729], [39.0528, 21.7736], [39.0538, 21.7747], [39.0539, 21.7763], [39.0528, 21.776], [39.0526, 21.7794], [39.0515, 21.7788], [39.0492, 21.7819], [39.0474, 21.7826], [39.0466, 21.7819], [39.0457, 21.7824], [39.0472, 21.7828], [39.0454, 21.7835], [39.0465, 21.784], [39.0432, 21.794], [39.0396, 21.7967], [39.0369, 21.801], [39.0381, 21.8018], [39.0367, 21.8013], [39.0368, 21.8024], [39.0351, 21.8019], [39.0349, 21.8021], [39.0375, 21.8048], [39.0351, 21.8027], [39.0356, 21.8044], [39.0318, 21.8053], [39.03, 21.8018], [39.0132, 21.8176], [39.0174, 21.8225], [39.0188, 21.8223], [39.0181, 21.8233], [39.0197, 21.823], [39.019, 21.8241], [39.0205, 21.8235], [39.0206, 21.8251], [39.0214, 21.824], [39.0214, 21.8257], [39.0223, 21.8247], [39.0221, 21.8264], [39.0233, 21.8254], [39.0224, 21.8267], [39.0242, 21.8261], [39.0233, 21.8274], [39.0249, 21.8266], [39.0249, 21.8284], [39.026, 21.8272], [39.0259, 21.829], [39.0269, 21.8278], [39.0286, 21.8304], [39.0272, 21.8315], [39.0258, 21.8302], [39.0253, 21.8318], [39.0243, 21.8305], [39.0249, 21.8339], [39.027, 21.8344], [39.029, 21.8306], [39.03, 21.8321], [39.0322, 21.8313], [39.0314, 21.8328], [39.0392, 21.8387], [39.0308, 21.8343], [39.0295, 21.8353], [39.036, 21.8397], [39.0364, 21.8421], [39.0235, 21.8331], [39.0219, 21.834], [39.0229, 21.8325], [39.021, 21.8333], [39.0218, 21.8319], [39.02, 21.8325], [39.0203, 21.8309], [39.0192, 21.8321], [39.0196, 21.8301], [39.0182, 21.8314], [39.0189, 21.829], [39.0174, 21.8311], [39.0182, 21.8275], [39.0172, 21.8303], [39.0168, 21.8282], [39.0162, 21.8297], [39.0159, 21.828], [39.0141, 21.8284], [39.0149, 21.827], [39.0132, 21.8277], [39.0148, 21.8266], [39.0133, 21.8251], [39.0151, 21.8253], [39.0137, 21.8243], [39.0164, 21.8245], [39.012, 21.8194], [39.0132, 21.8224], [39.0099, 21.8265], [39.0093, 21.8261], [39.0111, 21.8237], [39.0114, 21.8224], [39.012, 21.8221], [39.0118, 21.8211], [39.0104, 21.8206], [39.0097, 21.8213], [39.011, 21.8237], [39.0091, 21.826], [39.0089, 21.8218], [39.0059, 21.8245], [39.009, 21.8267], [39.0062, 21.8347], [39.0027, 21.8331], [39.0049, 21.836], [39.001, 21.8347], [39.004, 21.8381], [38.9999, 21.8368], [39.0024, 21.8404], [38.9988, 21.8386], [39.0016, 21.8413], [38.9947, 21.8446], [38.9963, 21.8465], [38.9936, 21.8457], [38.9945, 21.8478], [38.9922, 21.8455], [38.9892, 21.849], [38.9861, 21.8499], [38.9873, 21.851], [38.9859, 21.8522], [38.9858, 21.8501], [38.9839, 21.8511], [38.9852, 21.8539], [38.9829, 21.8527], [38.9835, 21.8515], [38.982, 21.8524], [38.9829, 21.8551], [38.9814, 21.8571], [38.9775, 21.8555], [38.9796, 21.8583], [38.9737, 21.8714], [38.9739, 21.8743], [38.9649, 21.8883], [38.9684, 21.8906], [38.9646, 21.8893], [38.9558, 21.9053], [38.9494, 21.9073], [38.9489, 21.9096], [38.9537, 21.9114], [38.9519, 21.9158], [38.9483, 21.9145], [38.9504, 21.9161], [38.9486, 21.9158], [38.9495, 21.9179], [38.9477, 21.9181], [38.9491, 21.9189], [38.9477, 21.9197], [38.9491, 21.9205], [38.9475, 21.9202], [38.9489, 21.9215], [38.9472, 21.9217], [38.9483, 21.923], [38.9469, 21.9238], [38.9543, 21.9227], [38.9563, 21.9189], [38.96, 21.9215], [38.9675, 21.917], [38.9684, 21.9178], [38.9611, 21.922], [38.9466, 21.9254], [38.9504, 21.9264], [38.9499, 21.928], [38.9468, 21.9272], [38.9469, 21.9288], [38.9576, 21.9313], [38.9557, 21.9386], [38.9586, 21.9395], [38.9576, 21.9402], [38.9588, 21.941], [38.9567, 21.9409], [38.9554, 21.9385], [38.9523, 21.9391], [38.9525, 21.9418], [38.9505, 21.9413], [38.9518, 21.9393], [38.9477, 21.9377], [38.9473, 21.9429], [38.9653, 21.9483], [38.9628, 21.9502], [38.9648, 21.9518], [38.9668, 21.9521], [38.9682, 21.9493], [38.9704, 21.9506], [38.9651, 21.9668], [38.9629, 21.9664], [38.9635, 21.963], [38.9617, 21.9622], [38.9592, 21.9627], [38.9606, 21.9644], [38.9599, 21.966], [38.944, 21.9619], [38.9479, 21.9686], [38.9473, 21.9745], [38.9436, 21.981], [38.9381, 21.9807], [38.9401, 21.9864], [38.935, 21.9977], [38.934, 22.0085], [38.9325, 22.0124], [38.93, 22.0121], [38.9325, 22.0126], [38.9334, 22.0144], [38.9336, 22.0178], [38.9306, 22.0183], [38.9345, 22.0186], [38.9361, 22.0219], [38.9365, 22.0178], [38.938, 22.0169], [38.9409, 22.0235], [38.9369, 22.0227], [38.9389, 22.0237], [38.94, 22.0289], [38.946, 22.0318], [38.9491, 22.0278], [38.9507, 22.0304], [38.951, 22.0271], [38.9571, 22.0195], [38.9668, 22.0181], [38.9665, 22.0237], [38.9681, 22.0247], [38.9665, 22.0253], [38.9654, 22.0232], [38.9641, 22.0247], [38.9634, 22.034], [38.9706, 22.0361], [38.975, 22.0402], [38.9777, 22.0394], [38.9757, 22.0371], [38.9767, 22.0338], [38.9913, 22.0387], [38.9886, 22.0361], [38.9858, 22.0296], [38.982, 22.028], [38.9775, 22.0299], [38.9728, 22.0271], [38.9728, 22.0229], [38.9784, 22.0229], [38.98, 22.0209], [38.9768, 22.0129], [38.9766, 22.0065], [38.9782, 22.0023], [38.9764, 22.0], [38.9767, 21.9975], [38.9699, 21.9923], [38.9704, 21.9856], [38.9682, 21.9866], [38.9706, 21.9833], [38.9693, 21.9833], [38.969, 21.9854], [38.967, 21.9841], [38.9657, 21.9869], [38.9647, 21.9856], [38.9709, 21.9793], [38.9746, 21.9825], [38.9734, 21.9851], [38.9756, 21.9846], [38.9756, 21.9856], [38.9781, 21.9854], [38.9759, 21.9836], [38.9768, 21.9812], [38.9803, 21.9801], [38.9806, 21.982], [38.9789, 21.9833], [38.9811, 21.9823], [38.9872, 21.9911], [38.9999, 21.9879], [39.004, 21.9851], [39.0082, 21.9855], [39.0116, 21.9882], [39.0119, 21.992], [39.0092, 21.9993], [39.0109, 22.0008], [39.0123, 21.9991], [39.017, 22.0005], [39.0173, 22.0075], [39.0187, 22.0093], [39.0172, 22.0181], [39.0152, 22.0206], [39.0165, 22.0214], [39.0145, 22.0224], [39.0137, 22.0281], [39.0107, 22.0291], [39.0105, 22.0345], [39.0141, 22.0456], [39.0145, 22.0513], [39.0129, 22.0523], [39.013, 22.0544], [39.0159, 22.0577], [39.0151, 22.0616], [39.0187, 22.0661], [39.0259, 22.0702], [39.03, 22.0695], [39.0375, 22.0649], [39.0322, 22.0631], [39.0332, 22.06], [39.0311, 22.0583], [39.0358, 22.0582], [39.0388, 22.0607], [39.0471, 22.0587], [39.0496, 22.0625], [39.0519, 22.0612], [39.0537, 22.0625], [39.0529, 22.0648], [39.0542, 22.0668], [39.0513, 22.0747], [39.0473, 22.0801], [39.0463, 22.0858], [39.0483, 22.0974], [39.0546, 22.1041], [39.0513, 22.1053], [39.0505, 22.1089], [39.0556, 22.1141], [39.0577, 22.1223], [39.0604, 22.1236], [39.0578, 22.1321], [39.062, 22.1455], [39.0618, 22.1473], [39.0566, 22.1481], [39.0532, 22.1532], [39.0555, 22.1543], [39.0562, 22.1568], [39.0559, 22.1615], [39.0527, 22.1648], [39.0494, 22.164], [39.0474, 22.1602], [39.0506, 22.1615], [39.0472, 22.1576], [39.0486, 22.1563], [39.048, 22.1545], [39.0535, 22.155], [39.0447, 22.1447], [39.0419, 22.1337], [39.0389, 22.1285], [39.0358, 22.1118], [39.0326, 22.1048], [39.033, 22.099], [39.0357, 22.0983], [39.0284, 22.0922], [39.0279, 22.0863], [39.027, 22.0879], [39.0228, 22.0871], [39.0179, 22.0948], [39.0217, 22.0994], [39.0209, 22.1108], [39.0231, 22.111], [39.0282, 22.1211], [39.0286, 22.1257], [39.0314, 22.1257], [39.0421, 22.1455], [39.0418, 22.1527], [39.0386, 22.1597], [39.0412, 22.162], [39.0418, 22.1692], [39.0386, 22.1713], [39.0374, 22.1769], [39.0389, 22.1804], [39.0445, 22.1831], [39.043, 22.1857], [39.0401, 22.1858], [39.043, 22.1862], [39.0432, 22.1875], [39.0412, 22.1916], [39.0415, 22.2014], [39.0403, 22.2031], [39.045, 22.2105], [39.0444, 22.2126], [39.0482, 22.213], [39.0483, 22.2148], [39.0522, 22.2141], [39.0552, 22.2168], [39.0549, 22.2191], [39.0541, 22.2181], [39.0513, 22.2181], [39.0556, 22.2202], [39.0602, 22.231], [39.069, 22.2408], [39.0715, 22.25], [39.0713, 22.2428], [39.0751, 22.2441], [39.0775, 22.25], [39.0818, 22.2531], [39.0837, 22.2629], [39.0859, 22.2632], [39.0857, 22.271], [39.0887, 22.2791], [39.0871, 22.2795], [39.0872, 22.2796], [39.0888, 22.2792], [39.0892, 22.2808], [39.0927, 22.2821], [39.0899, 22.2817], [39.0896, 22.2847], [39.0915, 22.2852], [39.0945, 22.2814], [39.0976, 22.2823], [39.0968, 22.2859], [39.0931, 22.2904], [39.0894, 22.2903], [39.0898, 22.2923], [39.0875, 22.2921], [39.0895, 22.2934], [39.0893, 22.2958], [39.0947, 22.2981], [39.0951, 22.2997], [39.0989, 22.2996], [39.1008, 22.3008], [39.0993, 22.3013], [39.104, 22.3039], [39.102, 22.3047], [39.104, 22.3054], [39.1026, 22.3085], [39.0988, 22.3093], [39.0991, 22.3114], [39.101, 22.3119], [39.1004, 22.3144], [39.1097, 22.316], [39.1427, 22.316], [39.211, 22.3228], [39.2321, 22.3207], [39.2431, 22.2817], [39.2435, 22.268], [39.2391, 22.2439], [39.2425, 22.2256], [39.2458, 22.2192], [39.2607, 22.2051], [39.2658, 22.2028], [39.2807, 22.2005], [39.2843, 22.1974], [39.2846, 22.1941], [39.2826, 22.1918], [39.2635, 22.1798], [39.2598, 22.1759], [39.2608, 22.1714], [39.2686, 22.1681], [39.2725, 22.1636], [39.2788, 22.1476], [39.2743, 22.1408], [39.2663, 22.1361], [39.2501, 22.1256], [39.2295, 22.109], [39.2092, 22.1015], [39.2048, 22.098], [39.2222, 22.0832], [39.2385, 22.0635], [39.245, 22.0427]], [[39.1191, 21.7491], [39.1192, 21.7492], [39.119, 21.7492], [39.1191, 21.7491]]]]}}, {"type": "Feature", "properties": {"metro_id": "SAUM03", "metro_name": "Mecca", "n_members": 1, "n_missing": 0, "n_regions": 1, "regions": "Makkah"}, "geometry": {"type": "Polygon", "coordinates": [[[39.6437, 21.463], [39.6449, 21.4622], [39.6523, 21.4736], [39.6641, 21.4866], [39.6921, 21.5094], [39.7081, 21.5276], [39.7241, 21.5427], [39.7246, 21.5477], [39.7217, 21.5561], [39.7224, 21.5614], [39.7256, 21.5657], [39.7351, 21.5694], [39.7491, 21.5704], [39.7617, 21.5749], [39.7672, 21.5721], [39.7762, 21.5604], [39.7772, 21.5531], [39.7835, 21.5424], [39.7889, 21.5287], [39.7987, 21.5204], [39.8094, 21.5183], [39.8283, 21.5203], [39.8388, 21.5246], [39.848, 21.5319], [39.8522, 21.5364], [39.8563, 21.5502], [39.8553, 21.5569], [39.8613, 21.5629], [39.8613, 21.5662], [39.8582, 21.5689], [39.8351, 21.5761], [39.8186, 21.5915], [39.8126, 21.5943], [39.8022, 21.5959], [39.7935, 21.602], [39.7912, 21.6109], [39.795, 21.6135], [39.8072, 21.6134], [39.826, 21.6086], [39.853, 21.5974], [39.8885, 21.5922], [39.912, 21.5927], [39.9269, 21.5957], [39.9348, 21.5992], [39.9414, 21.6069], [39.9606, 21.6161], [39.9689, 21.6143], [39.9757, 21.6054], [39.9827, 21.6064], [39.9858, 21.6125], [39.9836, 21.62], [39.9783, 21.6267], [39.9648, 21.6362], [39.9593, 21.6443], [39.9583, 21.6588], [39.9499, 21.6757], [39.9494, 21.6845], [39.9529, 21.6891], [39.9611, 21.6916], [39.9654, 21.7025], [39.9712, 21.7075], [39.9849, 21.7123], [40.0206, 21.7193], [40.0359, 21.7291], [40.0432, 21.7378], [40.055, 21.7381], [40.064, 21.7406], [40.0842, 21.7403], [40.0968, 21.7374], [40.1117, 21.7318], [40.1247, 21.7306], [40.1358, 21.7311], [40.1656, 21.7383], [40.1916, 21.7509], [40.2116, 21.7774], [40.2463, 21.7888], [40.2591, 21.8014], [40.2711, 21.8212], [40.2842, 21.8332], [40.2986, 21.842], [40.3194, 21.8475], [40.3284, 21.8479], [40.3337, 21.8457], [40.3737, 21.8191], [40.3825, 21.8184], [40.3938, 21.8142], [40.4087, 21.8132], [40.4191, 21.8086], [40.4385, 21.8046], [40.4681, 21.8009], [40.4691, 21.7917], [40.4756, 21.7808], [40.4744, 21.7738], [40.4668, 21.7619], [40.4638, 21.7599], [40.4566, 21.7593], [40.452, 21.7656], [40.4483, 21.7664], [40.4398, 21.7598], [40.4295, 21.7591], [40.4171, 21.7641], [40.4088, 21.7606], [40.4025, 21.7546], [40.403, 21.7221], [40.3975, 21.7093], [40.3888, 21.699], [40.3915, 21.6886], [40.39, 21.6773], [40.394, 21.664], [40.3928, 21.6605], [40.3833, 21.65], [40.3842, 21.6435], [40.3895, 21.6367], [40.389, 21.6312], [40.3857, 21.627], [40.3815, 21.6254], [40.369, 21.6234], [40.3595, 21.6267], [40.354, 21.6245], [40.3518, 21.622], [40.3528, 21.6122], [40.3474, 21.5992], [40.344, 21.5792], [40.3499, 21.5534], [40.3534, 21.5457], [40.3632, 21.5341], [40.3688, 21.5232], [40.3683, 21.5156], [40.3482, 21.5079], [40.3402, 21.5089], [40.3384, 21.5194], [40.341, 21.5247], [40.3377, 21.5282], [40.3366, 21.5385], [40.3331, 21.5399], [40.3267, 21.5393], [40.3279, 21.5289], [40.3269, 21.5198], [40.325, 21.5118], [40.3237, 21.5097], [40.3204, 21.5089], [40.3056, 21.5108], [40.2977, 21.5196], [40.2891, 21.5257], [40.2567, 21.5321], [40.2443, 21.5319], [40.2371, 21.5281], [40.2237, 21.5259], [40.2168, 21.5228], [40.2009, 21.5043], [40.1898, 21.4834], [40.1913, 21.4786], [40.1991, 21.4728], [40.2109, 21.4686], [40.2239, 21.4611], [40.2293, 21.4558], [40.2209, 21.4373], [40.2209, 21.4328], [40.2259, 21.4225], [40.2261, 21.4162], [40.2293, 21.4118], [40.2301, 21.407], [40.2246, 21.395], [40.2233, 21.3875], [40.2258, 21.3818], [40.2304, 21.3783], [40.2567, 21.3708], [40.2621, 21.3658], [40.2579, 21.3562], [40.2509, 21.3525], [40.2476, 21.3422], [40.2431, 21.3354], [40.2429, 21.3319], [40.2499, 21.3195], [40.2661, 21.3057], [40.2697, 21.2982], [40.2676, 21.2932], [40.2644, 21.2919], [40.2576, 21.2896], [40.2474, 21.2894], [40.2378, 21.2849], [40.2353, 21.2739], [40.2311, 21.2676], [40.2249, 21.2627], [40.2241, 21.2559], [40.2259, 21.2421], [40.2318, 21.2276], [40.2398, 21.2179], [40.2426, 21.1996], [40.2421, 21.197], [40.2341, 21.1898], [40.2279, 21.1816], [40.2199, 21.1758], [40.2126, 21.1753], [40.2056, 21.177], [40.193, 21.1818], [40.1906, 21.1812], [40.181, 21.1869], [40.1306, 21.1974], [40.1201, 21.1927], [40.1125, 21.1927], [40.0954, 21.205], [40.0773, 21.2155], [40.0687, 21.2155], [40.0602, 21.2088], [40.0535, 21.2079], [40.0459, 21.2117], [40.0373, 21.2117], [40.0278, 21.2203], [40.0297, 21.2298], [40.0202, 21.2555], [40.0069, 21.2812], [39.9966, 21.2992], [39.9852, 21.3117], [39.9802, 21.3107], [39.972, 21.3053], [39.9634, 21.291], [39.9534, 21.2796], [39.9459, 21.2725], [39.9213, 21.2553], [39.9181, 21.2507], [39.9192, 21.2386], [39.9538, 21.2318], [39.9559, 21.2282], [39.9495, 21.2236], [39.9327, 21.2], [39.9281, 21.2014], [39.9238, 21.1993], [39.9027, 21.1836], [39.8885, 21.1757], [39.8778, 21.1665], [39.8699, 21.1629], [39.8299, 21.1536], [39.7557, 21.1329], [39.7509, 21.1353], [39.7438, 21.1484], [39.7331, 21.1567], [39.6867, 21.1317], [39.676, 21.1198], [39.6617, 21.127], [39.6403, 21.1222], [39.6034, 21.1281], [39.5844, 21.1389], [39.5701, 21.1579], [39.5308, 21.19], [39.5154, 21.215], [39.5059, 21.2352], [39.5094, 21.2436], [39.5213, 21.2614], [39.5249, 21.2828], [39.538, 21.2959], [39.557, 21.3102], [39.5749, 21.3161], [39.6073, 21.3207], [39.6117, 21.3267], [39.6147, 21.3346], [39.6226, 21.3395], [39.6236, 21.3449], [39.6218, 21.3521], [39.6267, 21.3814], [39.6249, 21.3886], [39.6261, 21.413], [39.6314, 21.4243], [39.6332, 21.4367], [39.6437, 21.463]]]}}, {"type": "Feature", "properties": {"metro_id": "SAUM04", "metro_name": "Medina", "n_members": 1, "n_missing": 0, "n_regions": 1, "regions": "AlMadinah"}, "geometry": {"type": "Polygon", "coordinates": [[[40.0675, 25.3318], [40.0683, 25.3268], [40.0792, 25.3033], [40.0898, 25.271], [40.0948, 25.2625], [40.0963, 25.255], [40.1062, 25.2322], [40.1232, 25.2265], [40.1501, 25.2247], [40.1686, 25.2215], [40.1719, 25.2197], [40.1719, 25.2162], [40.1661, 25.2064], [40.16, 25.1882], [40.1583, 25.1821], [40.1583, 25.1701], [40.1591, 25.1669], [40.1661, 25.1584], [40.1649, 25.1479], [40.1833, 25.1329], [40.1908, 25.1146], [40.1904, 25.1116], [40.1821, 25.1059], [40.1833, 25.1014], [40.1919, 25.0911], [40.1818, 25.0768], [40.1853, 25.0683], [40.1843, 25.0623], [40.1796, 25.0568], [40.1719, 25.052], [40.1721, 25.0471], [40.1604, 25.034], [40.1586, 25.0205], [40.1566, 25.0173], [40.1478, 25.0193], [40.1343, 25.0188], [40.0643, 25.0225], [40.0277, 25.027], [40.0061, 25.0264], [39.9769, 25.0315], [39.9685, 25.0304], [39.9392, 25.0193], [39.9248, 24.9946], [39.9279, 24.9744], [39.9399, 24.9682], [39.9721, 24.9631], [40.0023, 24.9724], [40.0143, 24.97], [40.0252, 24.9576], [40.0383, 24.9583], [40.0537, 24.9662], [40.0633, 24.9737], [40.0787, 24.9737], [40.0873, 24.9672], [40.0955, 24.9638], [40.1267, 24.9737], [40.1522, 24.993], [40.1718, 24.9905], [40.1803, 24.9868], [40.1871, 24.981], [40.1929, 24.9725], [40.1915, 24.9702], [40.1961, 24.9655], [40.1961, 24.9497], [40.1915, 24.9455], [40.1952, 24.9427], [40.1938, 24.9395], [40.1887, 24.9353], [40.1812, 24.9316], [40.1812, 24.926], [40.1933, 24.8985], [40.2008, 24.8692], [40.2036, 24.8632], [40.2343, 24.8381], [40.2394, 24.826], [40.2473, 24.7948], [40.2543, 24.7902], [40.251, 24.7748], [40.2524, 24.7688], [40.2575, 24.7604], [40.2608, 24.7432], [40.2654, 24.7371], [40.2747, 24.7301], [40.2864, 24.705], [40.298, 24.6948], [40.3026, 24.6864], [40.3119, 24.678], [40.3222, 24.6599], [40.3315, 24.6548], [40.338, 24.6585], [40.3464, 24.6585], [40.3552, 24.6622], [40.3808, 24.6878], [40.3803, 24.6897], [40.4111, 24.6874], [40.4243, 24.6919], [40.4454, 24.6895], [40.4744, 24.6814], [40.4896, 24.6807], [40.4947, 24.6787], [40.5011, 24.672], [40.5106, 24.6654], [40.5229, 24.6301], [40.5292, 24.5876], [40.5282, 24.5741], [40.5322, 24.5531], [40.5337, 24.5083], [40.5324, 24.44], [40.534, 24.4294], [40.5724, 24.3985], [40.597, 24.3877], [40.6018, 24.3767], [40.6052, 24.3546], [40.6155, 24.3428], [40.6372, 24.2915], [40.6402, 24.2799], [40.6711, 24.2494], [40.6677, 24.2075], [40.6753, 24.1916], [40.6877, 24.1435], [40.6869, 24.1331], [40.6933, 24.1057], [40.6622, 24.0625], [40.6301, 24.0122], [40.6105, 23.9947], [40.5966, 23.9877], [40.5893, 23.9857], [40.5339, 23.9867], [40.5194, 23.9908], [40.5134, 23.99], [40.4904, 23.9588], [40.4656, 23.9309], [40.4623, 23.9232], [40.4581, 23.9205], [40.4269, 23.9139], [40.3956, 23.9092], [40.3743, 23.9012], [40.3611, 23.8999], [40.358, 23.8972], [40.3577, 23.8944], [40.3755, 23.8782], [40.3848, 23.8762], [40.3896, 23.8727], [40.3901, 23.8707], [40.3888, 23.8626], [40.3791, 23.8497], [40.3738, 23.8366], [40.3608, 23.8154], [40.3538, 23.7953], [40.354, 23.7918], [40.3587, 23.7851], [40.3605, 23.7779], [40.3645, 23.7713], [40.367, 23.757], [40.3656, 23.7443], [40.3542, 23.7348], [40.3463, 23.7328], [40.3388, 23.7336], [40.3297, 23.7308], [40.3082, 23.7323], [40.3037, 23.7355], [40.2923, 23.7381], [40.2905, 23.735], [40.2909, 23.6882], [40.28, 23.676], [40.2777, 23.6748], [40.2747, 23.6758], [40.263, 23.6717], [40.2425, 23.6604], [40.2232, 23.6567], [40.2091, 23.6399], [40.2057, 23.6384], [40.1951, 23.6395], [40.1919, 23.6369], [40.1891, 23.631], [40.1818, 23.627], [40.1743, 23.6265], [40.1684, 23.6237], [40.1691, 23.621], [40.1723, 23.6189], [40.1882, 23.6149], [40.1938, 23.6107], [40.2187, 23.6064], [40.2202, 23.6054], [40.2206, 23.5997], [40.2232, 23.5949], [40.2212, 23.5892], [40.2054, 23.5894], [40.1866, 23.5816], [40.1664, 23.5807], [40.1468, 23.5704], [40.1313, 23.5684], [40.1195, 23.5568], [40.1118, 23.5559], [40.1048, 23.5514], [40.0995, 23.5458], [40.0973, 23.5414], [40.0976, 23.5381], [40.0727, 23.5203], [40.0613, 23.5146], [40.0384, 23.5118], [40.0279, 23.5086], [40.0185, 23.5091], [40.0124, 23.5065], [40.0004, 23.5111], [39.9952, 23.5166], [39.9969, 23.5251], [40.0042, 23.5298], [40.0047, 23.5324], [39.9909, 23.5458], [39.9856, 23.5608], [39.9799, 23.5674], [39.9662, 23.5771], [39.9537, 23.5756], [39.9461, 23.5811], [39.9121, 23.5836], [39.9021, 23.5967], [39.9029, 23.6127], [39.9133, 23.6214], [39.9216, 23.6387], [39.9252, 23.6419], [39.9307, 23.6437], [39.9447, 23.6413], [39.9634, 23.6407], [39.9684, 23.639], [39.9797, 23.6449], [39.9827, 23.6515], [39.9852, 23.6689], [39.9914, 23.6713], [39.9955, 23.683], [40.0021, 23.6852], [40.006, 23.6895], [40.0085, 23.6972], [40.0077, 23.7085], [40.0175, 23.7122], [40.0202, 23.7213], [40.0264, 23.7305], [40.0275, 23.7356], [40.0245, 23.742], [40.024, 23.7513], [40.0204, 23.7568], [40.015, 23.7571], [39.9936, 23.7466], [39.9871, 23.7461], [39.9836, 23.747], [39.9786, 23.7521], [39.9721, 23.7551], [39.9586, 23.7533], [39.9517, 23.7593], [39.9493, 23.7695], [39.9443, 23.7765], [39.9454, 23.7938], [39.9426, 23.8101], [39.9464, 23.8174], [39.9452, 23.8266], [39.9522, 23.8341], [39.9522, 23.8372], [39.9413, 23.8487], [39.9373, 23.8507], [39.9288, 23.8517], [39.9191, 23.8492], [39.9134, 23.8494], [39.9019, 23.8539], [39.9054, 23.8569], [39.9403, 23.8704], [39.9446, 23.8792], [39.9434, 23.8816], [39.9273, 23.8809], [39.9216, 23.8821], [39.9153, 23.89], [39.9023, 23.8922], [39.8963, 23.8954], [39.9031, 23.9082], [39.9141, 23.9092], [39.9171, 23.9109], [39.9204, 23.9202], [39.9169, 23.925], [39.9061, 23.9268], [39.9029, 23.9315], [39.9026, 23.9415], [39.9096, 23.949], [39.9078, 23.9513], [39.9021, 23.9525], [39.9003, 23.9547], [39.8986, 23.9595], [39.8988, 23.966], [39.8889, 23.9619], [39.8677, 23.9646], [39.843, 23.965], [39.8376, 23.9675], [39.833, 23.9656], [39.8268, 23.9673], [39.8239, 23.9626], [39.8155, 23.9571], [39.8088, 23.9614], [39.8006, 23.9622], [39.7955, 23.961], [39.7915, 23.9632], [39.7872, 23.9616], [39.7849, 23.9564], [39.7655, 23.9452], [39.7498, 23.9422], [39.7392, 23.9476], [39.7309, 23.9443], [39.7253, 23.9441], [39.7156, 23.9488], [39.7049, 23.9478], [39.7006, 23.9507], [39.6943, 23.9473], [39.6865, 23.9504], [39.6767, 23.9464], [39.6748, 23.9437], [39.6612, 23.9368], [39.656, 23.9295], [39.6527, 23.928], [39.6494, 23.9227], [39.6448, 23.9193], [39.6339, 23.9203], [39.6335, 23.9143], [39.6374, 23.9046], [39.6451, 23.8937], [39.6252, 23.8935], [39.6191, 23.8967], [39.5956, 23.9192], [39.5859, 23.9235], [39.5848, 23.9125], [39.594, 23.8939], [39.5807, 23.8893], [39.5811, 23.8854], [39.5763, 23.8847], [39.5772, 23.8745], [39.5719, 23.8726], [39.569, 23.8671], [39.5653, 23.8639], [39.5608, 23.8676], [39.5524, 23.8672], [39.5529, 23.8558], [39.5489, 23.8444], [39.5446, 23.8481], [39.5284, 23.8494], [39.522, 23.8575], [39.5152, 23.8612], [39.4982, 23.8636], [39.4891, 23.8716], [39.4754, 23.8737], [39.4709, 23.8725], [39.4675, 23.8653], [39.4635, 23.861], [39.4604, 23.8455], [39.4561, 23.8401], [39.4551, 23.8358], [39.4558, 23.8316], [39.459, 23.8277], [39.4502, 23.8205], [39.4381, 23.816], [39.4316, 23.816], [39.4296, 23.8196], [39.4033, 23.8348], [39.3929, 23.8472], [39.388, 23.8567], [39.3832, 23.8587], [39.3756, 23.8572], [39.358, 23.8491], [39.3544, 23.8615], [39.3508, 23.8866], [39.345, 23.8994], [39.3423, 23.899], [39.3322, 23.8848], [39.3322, 23.878], [39.3298, 23.8754], [39.3293, 23.8712], [39.3336, 23.8636], [39.3339, 23.8595], [39.3181, 23.8574], [39.3122, 23.852], [39.3119, 23.8443], [39.308, 23.8425], [39.2996, 23.8428], [39.2996, 23.8381], [39.3039, 23.8326], [39.3045, 23.8296], [39.2926, 23.8322], [39.2781, 23.829], [39.2722, 23.8331], [39.2611, 23.8349], [39.2568, 23.8379], [39.2594, 23.8438], [39.2562, 23.8478], [39.2331, 23.8348], [39.2179, 23.8311], [39.1912, 23.8292], [39.1828, 23.8316], [39.1799, 23.8342], [39.1797, 23.8419], [39.1835, 23.8478], [39.1891, 23.866], [39.1847, 23.8827], [39.19, 23.8896], [39.1982, 23.8932], [39.2129, 23.8933], [39.223, 23.8861], [39.2274, 23.8771], [39.2399, 23.8749], [39.2531, 23.8773], [39.2585, 23.8959], [39.258, 23.9056], [39.2548, 23.91], [39.2368, 23.9201], [39.2388, 23.9463], [39.231, 23.9561], [39.2341, 23.9602], [39.2388, 23.9833], [39.239, 23.9901], [39.2364, 23.9996], [39.2458, 24.0096], [39.2533, 24.0137], [39.2544, 24.0158], [39.2497, 24.0215], [39.2482, 24.0316], [39.2337, 24.0534], [39.2139, 24.068], [39.2082, 24.0806], [39.2098, 24.0854], [39.208, 24.095], [39.2088, 24.1047], [39.2124, 24.1111], [39.2154, 24.1224], [39.2214, 24.1206], [39.2232, 24.1246], [39.2213, 24.1289], [39.2249, 24.1431], [39.2236, 24.1603], [39.2184, 24.1686], [39.2102, 24.1745], [39.2018, 24.176], [39.1969, 24.1752], [39.1902, 24.1838], [39.1835, 24.184], [39.1779, 24.1813], [39.1765, 24.1778], [39.1842, 24.175], [39.1906, 24.1752], [39.1901, 24.1719], [39.1864, 24.1659], [39.1758, 24.1665], [39.1672, 24.164], [39.1652, 24.158], [39.1673, 24.1528], [39.1658, 24.146], [39.1589, 24.1335], [39.1445, 24.1252], [39.1317, 24.1273], [39.1202, 24.1261], [39.1144, 24.1214], [39.1092, 24.1208], [39.1061, 24.1271], [39.1101, 24.1389], [39.1055, 24.1419], [39.1064, 24.1537], [39.1, 24.1629], [39.086, 24.1965], [39.0888, 24.2089], [39.0853, 24.2169], [39.0782, 24.2258], [39.0709, 24.2314], [39.0433, 24.2471], [39.0434, 24.2565], [39.0401, 24.2657], [39.031, 24.2739], [39.0298, 24.2769], [39.0185, 24.28], [39.0147, 24.2881], [39.0105, 24.2929], [39.0004, 24.2959], [38.9949, 24.3003], [38.9925, 24.3042], [38.9928, 24.3172], [38.9888, 24.3325], [38.9773, 24.3362], [38.9446, 24.3418], [38.9377, 24.3465], [38.9377, 24.3493], [38.9408, 24.3521], [38.9598, 24.3649], [38.9773, 24.3696], [38.9872, 24.3752], [38.991, 24.382], [38.9912, 24.3976], [38.9931, 24.4018], [39.0002, 24.4038], [39.004, 24.4097], [39.0153, 24.4177], [39.0149, 24.4224], [39.0105, 24.4284], [39.006, 24.4308], [38.9967, 24.4325], [38.9884, 24.4404], [38.9877, 24.4425], [38.9896, 24.45], [38.9841, 24.4543], [38.9878, 24.4647], [38.9842, 24.4771], [38.9801, 24.4812], [38.9753, 24.4812], [38.9535, 24.479], [38.9411, 24.4757], [38.9245, 24.476], [38.9109, 24.4822], [38.8996, 24.4931], [38.889, 24.499], [38.8798, 24.5064], [38.8727, 24.5055], [38.8595, 24.5108], [38.8363, 24.5078], [38.8267, 24.5141], [38.8197, 24.5129], [38.8173, 24.5149], [38.8185, 24.5253], [38.8097, 24.5326], [38.8099, 24.5386], [38.8196, 24.5456], [38.8246, 24.5469], [38.8289, 24.5462], [38.8344, 24.5428], [38.8396, 24.5421], [38.8429, 24.5433], [38.845, 24.5516], [38.8436, 24.5535], [38.831, 24.5587], [38.8303, 24.5646], [38.8355, 24.5705], [38.846, 24.5732], [38.8396, 24.5822], [38.8377, 24.5902], [38.8436, 24.5973], [38.8517, 24.5976], [38.8561, 24.6002], [38.8568, 24.6116], [38.8633, 24.6339], [38.8728, 24.6819], [38.8775, 24.6912], [38.8773, 24.6948], [38.8746, 24.6967], [38.8701, 24.6966], [38.8621, 24.6924], [38.854, 24.6928], [38.854, 24.6992], [38.8585, 24.7049], [38.858, 24.708], [38.8486, 24.7097], [38.8466, 24.7137], [38.8377, 24.719], [38.8256, 24.7298], [38.8263, 24.7363], [38.8286, 24.7382], [38.8269, 24.7532], [38.8242, 24.7554], [38.8244, 24.7578], [38.8308, 24.7761], [38.8308, 24.7806], [38.8351, 24.7874], [38.8414, 24.8055], [38.8472, 24.8156], [38.8497, 24.8253], [38.8564, 24.8287], [38.8573, 24.832], [38.8524, 24.8358], [38.8367, 24.8408], [38.8277, 24.8389], [38.8137, 24.8389], [38.805, 24.8415], [38.8023, 24.845], [38.8016, 24.8548], [38.7959, 24.8564], [38.7936, 24.8597], [38.7929, 24.8739], [38.7902, 24.881], [38.776, 24.8825], [38.7689, 24.8865], [38.7658, 24.891], [38.7675, 24.8957], [38.7839, 24.8977], [38.7803, 24.9066], [38.7796, 24.913], [38.7755, 24.9155], [38.7656, 24.9299], [38.7663, 24.9451], [38.7751, 24.9567], [38.7748, 24.9612], [38.772, 24.9636], [38.7594, 24.9633], [38.7576, 24.9661], [38.7582, 24.9764], [38.7556, 24.9873], [38.7538, 25.0088], [38.7538, 25.0356], [38.7471, 25.0508], [38.7428, 25.056], [38.7333, 25.0628], [38.7327, 25.066], [38.7338, 25.0678], [38.7474, 25.0717], [38.7473, 25.0754], [38.7429, 25.083], [38.7424, 25.0894], [38.745, 25.0989], [38.7578, 25.1058], [38.758, 25.1093], [38.7542, 25.1143], [38.7583, 25.1165], [38.7734, 25.1198], [38.7779, 25.1243], [38.7836, 25.1259], [38.7862, 25.1302], [38.7905, 25.1319], [38.7936, 25.1356], [38.7948, 25.1508], [38.7936, 25.1617], [38.7851, 25.1804], [38.7758, 25.185], [38.7665, 25.1857], [38.7678, 25.2153], [38.7594, 25.2567], [38.7592, 25.2781], [38.7554, 25.2899], [38.7433, 25.3013], [38.7198, 25.3015], [38.7007, 25.3094], [38.6966, 25.3151], [38.6945, 25.3316], [38.6786, 25.3598], [38.676, 25.3745], [38.6718, 25.3869], [38.6718, 25.4096], [38.6677, 25.4248], [38.6682, 25.4283], [38.6905, 25.4357], [38.7194, 25.4359], [38.7703, 25.4404], [38.773, 25.4426], [38.773, 25.448], [38.763, 25.4507], [38.7608, 25.4539], [38.7613, 25.458], [38.776, 25.4649], [38.785, 25.4653], [38.7867, 25.4686], [38.79, 25.4694], [38.799, 25.4765], [38.803, 25.477], [38.8025, 25.4789], [38.8087, 25.4761], [38.813, 25.4679], [38.8357, 25.4696], [38.8413, 25.4726], [38.8465, 25.4729], [38.8651, 25.4696], [38.875, 25.4714], [38.8878, 25.4697], [38.9035, 25.4717], [38.9124, 25.4674], [38.9303, 25.4661], [38.9458, 25.4681], [38.9513, 25.4719], [38.9594, 25.4727], [38.9617, 25.4741], [38.9636, 25.4844], [38.9657, 25.4869], [38.9711, 25.4912], [38.9854, 25.496], [39.0314, 25.4887], [39.0457, 25.49], [39.0562, 25.4884], [39.0544, 25.486], [39.0167, 25.4704], [39.0094, 25.4621], [39.0076, 25.4532], [39.0074, 25.4431], [39.0122, 25.4191], [39.008, 25.4038], [39.0104, 25.3916], [39.0074, 25.3799], [39.0122, 25.3643], [39.0125, 25.357], [39.0087, 25.3461], [39.0104, 25.3088], [39.0064, 25.267], [39.0077, 25.2612], [39.0109, 25.257], [39.0052, 25.2487], [39.0054, 25.2467], [39.0129, 25.24], [39.0137, 25.2239], [39.0162, 25.2164], [39.016, 25.2147], [39.0102, 25.2116], [39.0102, 25.2092], [39.0152, 25.2019], [39.016, 25.1976], [39.0171, 25.1607], [39.1345, 25.1632], [39.2804, 25.0974], [39.3046, 25.061], [39.4317, 25.0125], [39.6615, 24.9111], [39.7501, 25.1003], [39.9121, 25.2181], [39.9064, 25.3062], [39.9374, 25.3586], [39.9464, 25.3695], [39.9519, 25.3725], [39.9644, 25.3735], [39.9791, 25.3718], [39.9929, 25.3661], [40.0085, 25.3666], [40.02, 25.3696], [40.0239, 25.3686], [40.0309, 25.364], [40.0537, 25.3397], [40.0625, 25.333], [40.0675, 25.3318]]]}}, {"type": "Feature", "properties": {"metro_id": "SAUM05", "metro_name": "Riyadh", "n_members": 1, "n_missing": 0, "n_regions": 1, "regions": "ArRiyad"}, "geometry": {"type": "Polygon", "coordinates": [[[46.9307, 24.2262], [46.8976, 24.2327], [46.8513, 24.2355], [46.845, 24.237], [46.8315, 24.2439], [46.8061, 24.247], [46.7515, 24.2757], [46.7286, 24.2858], [46.7164, 24.3023], [46.7022, 24.3111], [46.6912, 24.3133], [46.6561, 24.3343], [46.6446, 24.3426], [46.6234, 24.3626], [46.6211, 24.3664], [46.6218, 24.3749], [46.6263, 24.3829], [46.6389, 24.3926], [46.6552, 24.3943], [46.6576, 24.3953], [46.6592, 24.3988], [46.6566, 24.4079], [46.6489, 24.4188], [46.6439, 24.4235], [46.6264, 24.4311], [46.6232, 24.4344], [46.6183, 24.4527], [46.6016, 24.4595], [46.5913, 24.466], [46.5701, 24.4724], [46.5558, 24.479], [46.5297, 24.4814], [46.5222, 24.4795], [46.4832, 24.489], [46.46, 24.4982], [46.4474, 24.5088], [46.4117, 24.526], [46.3981, 24.5342], [46.3874, 24.5437], [46.3763, 24.5507], [46.3618, 24.5695], [46.3538, 24.574], [46.3474, 24.5823], [46.3494, 24.5928], [46.3481, 24.5963], [46.3371, 24.6038], [46.3349, 24.6143], [46.3273, 24.6213], [46.326, 24.6261], [46.317, 24.6308], [46.317, 24.6358], [46.3364, 24.6416], [46.3449, 24.6463], [46.3848, 24.6794], [46.4267, 24.6816], [46.438, 24.6876], [46.4504, 24.7031], [46.4576, 24.7001], [46.4756, 24.6971], [46.4838, 24.697], [46.4935, 24.7001], [46.5014, 24.7007], [46.5085, 24.6957], [46.5111, 24.6955], [46.5228, 24.7072], [46.533, 24.7116], [46.5408, 24.7171], [46.6097, 24.7367], [46.6145, 24.742], [46.6286, 24.7484], [46.6334, 24.7545], [46.6325, 24.7623], [46.6247, 24.7729], [46.6263, 24.8072], [46.6143, 24.8257], [46.6093, 24.858], [46.612, 24.8771], [46.6101, 24.8806], [46.5987, 24.8898], [46.5968, 24.8972], [46.5818, 24.9066], [46.5712, 24.9101], [46.5398, 24.9084], [46.5173, 24.9025], [46.506, 24.9013], [46.4915, 24.9036], [46.4779, 24.9098], [46.446, 24.919], [46.4359, 24.9271], [46.4352, 24.9324], [46.438, 24.9483], [46.4431, 24.9559], [46.4513, 24.9612], [46.4603, 24.9617], [46.4783, 24.9589], [46.5009, 24.9464], [46.5062, 24.9456], [46.5164, 24.9453], [46.5399, 24.9502], [46.5546, 24.9557], [46.5555, 24.9608], [46.5541, 24.9631], [46.5413, 24.9804], [46.5353, 24.9854], [46.5249, 24.9875], [46.5021, 24.9827], [46.4995, 24.9831], [46.4919, 24.99], [46.4813, 24.9902], [46.4751, 24.9875], [46.4731, 24.9889], [46.4717, 24.9993], [46.4641, 25.017], [46.4754, 25.0391], [46.5054, 25.0567], [46.5066, 25.066], [46.51, 25.0724], [46.5134, 25.0747], [46.5109, 25.0797], [46.5411, 25.0923], [46.5498, 25.0978], [46.5509, 25.1001], [46.5491, 25.108], [46.5498, 25.1238], [46.5426, 25.1373], [46.5431, 25.1668], [46.5326, 25.1859], [46.5318, 25.1938], [46.5591, 25.2109], [46.5644, 25.2167], [46.5646, 25.2192], [46.5592, 25.2279], [46.5499, 25.2391], [46.5466, 25.2489], [46.5595, 25.2673], [46.5965, 25.2024], [46.6133, 25.1869], [46.625, 25.1726], [46.6548, 25.1493], [46.6846, 25.1091], [47.0978, 24.9402], [47.1842, 24.9411], [47.211, 24.9446], [47.2412, 24.9512], [47.2609, 24.9494], [47.3278, 24.962], [47.352, 24.964], [47.3533, 24.9619], [47.3505, 24.9496], [47.3506, 24.9417], [47.3543, 24.9349], [47.3605, 24.9301], [47.3698, 24.9257], [47.3776, 24.9244], [47.3851, 24.9264], [47.4054, 24.9279], [47.4184, 24.9362], [47.4454, 24.9639], [47.4512, 24.9655], [47.4557, 24.9719], [47.4651, 24.9759], [47.4694, 24.9822], [47.4757, 24.9867], [47.4745, 24.9967], [47.4659, 25.0019], [47.4532, 25.0262], [47.4526, 25.0338], [47.4546, 25.041], [47.4614, 25.0455], [47.4764, 25.0437], [47.4809, 25.0463], [47.4912, 25.0467], [47.5107, 25.0342], [47.5477, 25.0263], [47.5685, 25.0235], [47.5805, 25.0278], [47.5883, 25.0272], [47.6068, 25.0177], [47.616, 25.0097], [47.6307, 24.9909], [47.6434, 24.9786], [47.664, 24.9737], [47.676, 24.9671], [47.6992, 24.9392], [47.7014, 24.935], [47.7022, 24.9216], [47.7073, 24.9059], [47.7264, 24.8787], [47.7428, 24.8494], [47.7413, 24.8281], [47.7372, 24.8092], [47.7396, 24.7989], [47.7391, 24.7918], [47.7355, 24.7843], [47.7345, 24.7757], [47.7293, 24.7644], [47.733, 24.7404], [47.7357, 24.7333], [47.7386, 24.7081], [47.7377, 24.6687], [47.7428, 24.654], [47.7426, 24.6303], [47.7394, 24.611], [47.7357, 24.5992], [47.7335, 24.595], [47.722, 24.5857], [47.721, 24.5826], [47.721, 24.5786], [47.7247, 24.5693], [47.7267, 24.5502], [47.733, 24.5319], [47.7325, 24.5218], [47.7276, 24.5157], [47.7243, 24.5178], [47.7043, 24.5222], [47.6919, 24.5222], [47.6691, 24.518], [47.6631, 24.5133], [47.6605, 24.5062], [47.6611, 24.496], [47.6538, 24.4839], [47.6511, 24.475], [47.6523, 24.466], [47.6594, 24.4442], [47.6558, 24.4374], [47.6138, 24.4244], [47.5982, 24.4225], [47.595, 24.4252], [47.5698, 24.4346], [47.5588, 24.442], [47.5593, 24.4461], [47.5504, 24.4593], [47.5241, 24.474], [47.5105, 24.4866], [47.5, 24.4976], [47.4906, 24.5123], [47.478, 24.527], [47.3174, 24.518], [47.2529, 24.5233], [47.223, 24.528], [47.2088, 24.5243], [47.1841, 24.4976], [47.1847, 24.4907], [47.1978, 24.4551], [47.1983, 24.4456], [47.1951, 24.4297], [47.1629, 24.4099], [47.1361, 24.3981], [47.1276, 24.3821], [47.1258, 24.3594], [47.1238, 24.3563], [47.1116, 24.3481], [47.1005, 24.33], [47.087, 24.3193], [47.0748, 24.3135], [47.0628, 24.3121], [47.0145, 24.315], [46.9829, 24.3146], [46.9757, 24.3011], [46.9624, 24.293], [46.9524, 24.2845], [46.9504, 24.2763], [46.9509, 24.2717], [46.9554, 24.2625], [46.9747, 24.234], [46.9797, 24.225], [46.9797, 24.2224], [46.9754, 24.22], [46.9652, 24.2222], [46.9472, 24.2212], [46.9307, 24.2262]]]}}]}