{
"type": "FeatureCollection",
"name": "05_USM01_都市圈边界",
"crs": { "type": "name", "properties": { "name": "urn:ogc:def:crs:OGC:1.3:CRS84" } },
"features": [
{ "type": "Feature", "properties": { "metro_id": "USM01", "GID_2": "USA.11.7_1", "GID_0": "USA", "COUNTRY": "UnitedStates", "GID_1": "USA.11_1", "NAME_1": "Georgia", "NL_NAME_1": "NA", "NAME_2": "Barrow", "VARNAME_2": "NA", "NL_NAME_2": "NA", "TYPE_2": "County", "ENGTYPE_2": "County", "CC_2": "NA", "HASC_2": "US.GA.BW", "level": 3, "admin_level": 2, "metro_name": "Atlanta-Sandy Springs-Roswell, GA" }, "geometry": { "type": "Polygon", "coordinates": [ [ [ -84.2896, 32.9913 ], [ -84.293, 32.9994 ], [ -84.2985, 32.9998 ], [ -84.2989, 32.9916 ], [ -84.4904, 32.9939 ], [ -84.4957, 32.9847 ], [ -84.5006, 32.9819 ], [ -84.5, 32.9792 ], [ -84.5054, 32.9732 ], [ -84.5217, 32.9684 ], [ -84.5272, 32.9706 ], [ -84.526758011049708, 32.970909392265192 ], [ -84.5321, 32.9701 ], [ -84.5342, 32.9646 ], [ -84.5325, 32.961 ], [ -84.5248, 32.9611 ], [ -84.5186, 32.9507 ], [ -84.5201, 32.9434 ], [ -84.5228, 32.9397 ], [ -84.5226, 32.9324 ], [ -84.5275, 32.9292 ], [ -84.5285, 32.9264 ], [ -84.5257, 32.9237 ], [ -84.524, 32.9183 ], [ -84.5272, 32.9146 ], [ -84.5239, 32.9128 ], [ -84.5168, 32.9152 ], [ -84.5118, 32.9125 ], [ -84.5084, 32.9039 ], [ -84.5077, 32.8975 ], [ -84.5097, 32.8839 ], [ -84.5074, 32.8816 ], [ -84.5073, 32.8775 ], [ -84.5712, 32.8448 ], [ -84.7005, 32.8443 ], [ -84.7677, 32.8692 ], [ -84.7682, 32.8674 ], [ -84.8409, 32.8681 ], [ -84.848, 32.8684 ], [ -84.8476, 32.8725 ], [ -84.8617, 32.8723 ], [ -84.8611, 32.9611 ], [ -84.8644, 32.961 ], [ -84.8627, 33.1909 ], [ -84.8629, 33.1987 ], [ -84.8699, 33.1954 ], [ -84.8695, 33.2009 ], [ -84.8719, 33.2076 ], [ -84.8625, 33.2078 ], [ -84.8624, 33.2237 ], [ -84.9392, 33.2247 ], [ -85.0414, 33.1884 ], [ -85.0456, 33.1815 ], [ -85.0578, 33.184 ], [ -85.0647, 33.1784 ], [ -85.0882, 33.172 ], [ -85.088, 33.1866 ], [ -85.0979, 33.1869 ], [ -85.0981, 33.1951 ], [ -85.108, 33.1954 ], [ -85.1081, 33.1785 ], [ -85.1174, 33.1788 ], [ -85.1175, 33.1638 ], [ -85.2373, 33.1296 ], [ -85.264, 33.262 ], [ -85.2946, 33.428 ], [ -85.3051, 33.4827 ], [ -85.3384, 33.6532 ], [ -85.3855, 33.8974 ], [ -85.2128, 33.899 ], [ -85.213, 33.9063 ], [ -85.050298953190307, 33.907594212872347 ], [ -85.0498, 33.9525 ], [ -84.9778, 33.9515 ], [ -84.9297, 34.07 ], [ -84.9228, 34.0824 ], [ -84.9145, 34.0826 ], [ -84.9301, 34.0828 ], [ -84.9299, 34.0782 ], [ -84.9388, 34.0785 ], [ -84.9389, 34.0826 ], [ -85.0, 34.0829 ], [ -85.0476, 34.0812 ], [ -85.045, 34.2122 ], [ -85.0238, 34.2121 ], [ -85.0229, 34.3452 ], [ -85.0051, 34.3456 ], [ -85.0054, 34.4033 ], [ -84.9976, 34.403 ], [ -84.9981, 34.3993 ], [ -84.9903, 34.3994 ], [ -84.9883, 34.3845 ], [ -84.9793, 34.3846 ], [ -84.9812, 34.3919 ], [ -84.9808, 34.3992 ], [ -84.9725, 34.3988 ], [ -84.9728, 34.3916 ], [ -84.971, 34.3843 ], [ -84.9531, 34.3837 ], [ -84.955, 34.3909 ], [ -84.9546, 34.3987 ], [ -84.734, 34.3963 ], [ -84.7338, 34.4126 ], [ -84.6536, 34.4124 ], [ -84.654, 34.4556 ], [ -84.6445, 34.4557 ], [ -84.6447, 34.463 ], [ -84.653, 34.4629 ], [ -84.6548, 34.5492 ], [ -84.5206, 34.5504 ], [ -84.5208, 34.5567 ], [ -84.5121, 34.5569 ], [ -84.5122, 34.564 ], [ -84.5027, 34.5637 ], [ -84.5035, 34.5504 ], [ -84.4767, 34.5499 ], [ -84.4769, 34.5566 ], [ -84.486, 34.5567 ], [ -84.4861, 34.5633 ], [ -84.4679, 34.5632 ], [ -84.4678, 34.55 ], [ -84.3718, 34.5483 ], [ -84.372, 34.563 ], [ -84.346439825714725, 34.562708439076594 ], [ -84.3465, 34.5667 ], [ -84.3313, 34.5725 ], [ -84.3373, 34.5771 ], [ -84.3373, 34.5791 ], [ -84.3287, 34.5835 ], [ -84.3215, 34.5821 ], [ -84.3155, 34.5783 ], [ -84.3059, 34.5805 ], [ -84.2985, 34.5761 ], [ -84.294, 34.5693 ], [ -84.29, 34.5684 ], [ -84.2796, 34.5692 ], [ -84.279, 34.5722 ], [ -84.2761, 34.5737 ], [ -84.2703, 34.5704 ], [ -84.255, 34.5683 ], [ -84.2546, 34.5973 ], [ -84.2237, 34.5971 ], [ -84.223, 34.6006 ], [ -84.2186, 34.6 ], [ -84.2179, 34.6039 ], [ -84.2135, 34.6106 ], [ -84.2087, 34.6136 ], [ -84.2035, 34.6132 ], [ -84.1971, 34.6176 ], [ -84.1887, 34.6092 ], [ -84.1892, 34.6056 ], [ -84.1869, 34.6002 ], [ -84.1885, 34.5974 ], [ -84.191, 34.5397 ], [ -84.1131, 34.4714 ], [ -84.0975, 34.4707 ], [ -84.0979, 34.4653 ], [ -84.1053, 34.4655 ], [ -84.0536, 34.445 ], [ -83.9801, 34.4188 ], [ -83.983, 34.4178 ], [ -83.9852, 34.4114 ], [ -83.9779, 34.411 ], [ -83.9751, 34.4065 ], [ -83.9728, 34.406 ], [ -83.9717, 34.4015 ], [ -83.9728, 34.3992 ], [ -83.9766, 34.3983 ], [ -83.9782, 34.391 ], [ -83.9843, 34.3846 ], [ -83.9837, 34.3823 ], [ -83.9775, 34.3792 ], [ -83.9803, 34.3764 ], [ -83.9791, 34.3719 ], [ -83.9813, 34.3687 ], [ -83.979, 34.3683 ], [ -83.9762, 34.3628 ], [ -83.9817, 34.3578 ], [ -83.9767, 34.3569 ], [ -83.967, 34.3397 ], [ -83.9609, 34.343 ], [ -83.9575, 34.3339 ], [ -83.9535, 34.3308 ], [ -83.9457, 34.3295 ], [ -83.9468, 34.3272 ], [ -83.9457, 34.3249 ], [ -83.9512, 34.3226 ], [ -83.9534, 34.3162 ], [ -83.9438, 34.3045 ], [ -83.9414, 34.2954 ], [ -83.9336, 34.2909 ], [ -83.9297, 34.2905 ], [ -83.9257, 34.2864 ], [ -83.9268, 34.2805 ], [ -83.9284, 34.2792 ], [ -83.9406, 34.2754 ], [ -83.9539, 34.2685 ], [ -83.9539, 34.2662 ], [ -83.9505, 34.2622 ], [ -83.9537, 34.2531 ], [ -83.9497, 34.2476 ], [ -83.9496, 34.2404 ], [ -83.9618, 34.2321 ], [ -83.9712, 34.2288 ], [ -83.9722, 34.2247 ], [ -83.9694, 34.222 ], [ -83.9655, 34.222 ], [ -83.9644, 34.2207 ], [ -83.9677, 34.2152 ], [ -83.9788, 34.2133 ], [ -83.9825, 34.2042 ], [ -83.9891, 34.1955 ], [ -83.9957, 34.1936 ], [ -84.0024, 34.1963 ], [ -84.0107, 34.1912 ], [ -84.0146, 34.1912 ], [ -84.0246, 34.1952 ], [ -84.0319, 34.1956 ], [ -84.0424, 34.1937 ], [ -84.0496, 34.1913 ], [ -84.0539, 34.1858 ], [ -84.0594, 34.1822 ], [ -84.0594, 34.1762 ], [ -84.0631, 34.168 ], [ -83.868, 34.0983 ], [ -83.8178, 34.1273 ], [ -83.8156, 34.1269 ], [ -83.8128, 34.1192 ], [ -83.8127, 34.1128 ], [ -83.7926, 34.0993 ], [ -83.7903, 34.0943 ], [ -83.7902, 34.0857 ], [ -83.7707, 34.0722 ], [ -83.7684, 34.0672 ], [ -83.7656, 34.0654 ], [ -83.7579, 34.0663 ], [ -83.7434, 34.0646 ], [ -83.7412, 34.0665 ], [ -83.7351, 34.066 ], [ -83.7301, 34.0583 ], [ -83.7273, 34.0565 ], [ -83.724, 34.0611 ], [ -83.7218, 34.0607 ], [ -83.7189, 34.0543 ], [ -83.7156, 34.0562 ], [ -83.7129, 34.0557 ], [ -83.7139, 34.0503 ], [ -83.7105, 34.0457 ], [ -83.7056, 34.0462 ], [ -83.7007, 34.0535 ], [ -83.6946, 34.0549 ], [ -83.6923, 34.0518 ], [ -83.6868, 34.0536 ], [ -83.6862, 34.0482 ], [ -83.684, 34.0468 ], [ -83.6806, 34.0473 ], [ -83.6796, 34.0514 ], [ -83.6762, 34.0532 ], [ -83.6729, 34.0523 ], [ -83.6684, 34.0483 ], [ -83.6651, 34.0487 ], [ -83.6624, 34.0524 ], [ -83.6574, 34.0529 ], [ -83.6551, 34.0479 ], [ -83.6524, 34.0465 ], [ -83.6446, 34.0502 ], [ -83.6302, 34.0448 ], [ -83.6158, 34.0472 ], [ -83.609, 34.0386 ], [ -83.6046, 34.0391 ], [ -83.6013, 34.0368 ], [ -83.5885, 34.0378 ], [ -83.5836, 34.0401 ], [ -83.5736, 34.0392 ], [ -83.573, 34.0351 ], [ -83.5702, 34.0311 ], [ -83.5636, 34.032 ], [ -83.537, 33.9662 ], [ -83.646846889671352, 33.906346889671369 ], [ -83.6462, 33.9057 ], [ -83.6407, 33.9057 ], [ -83.634, 33.9021 ], [ -83.6306, 33.8935 ], [ -83.6311, 33.8885 ], [ -83.6278, 33.8853 ], [ -83.6189, 33.8853 ], [ -83.6172, 33.8831 ], [ -83.6095, 33.8813 ], [ -83.6045, 33.8818 ], [ -83.6034, 33.8836 ], [ -83.6012, 33.8818 ], [ -83.5968, 33.8827 ], [ -83.594, 33.8814 ], [ -83.5846, 33.8837 ], [ -83.5824, 33.8828 ], [ -83.5868, 33.8769 ], [ -83.5878, 33.8646 ], [ -83.5828, 33.8633 ], [ -83.5817, 33.8601 ], [ -83.5744, 33.8542 ], [ -83.5749, 33.8492 ], [ -83.5716, 33.8465 ], [ -83.5666, 33.8474 ], [ -83.5605, 33.842 ], [ -83.5522, 33.8384 ], [ -83.5472, 33.8339 ], [ -83.5439, 33.8334 ], [ -83.5311, 33.8249 ], [ -83.5333, 33.8217 ], [ -83.5217, 33.8185 ], [ -83.52, 33.8199 ], [ -83.5172, 33.8167 ], [ -83.5161, 33.8181 ], [ -83.5106, 33.8154 ], [ -83.5089, 33.8181 ], [ -83.5058, 33.8179 ], [ -83.4984, 33.8145 ], [ -83.489, 33.8046 ], [ -83.4857, 33.8069 ], [ -83.484, 33.8064 ], [ -83.4818, 33.8023 ], [ -83.4828, 33.7996 ], [ -83.4812, 33.7978 ], [ -83.4773, 33.7978 ], [ -83.4784, 33.7928 ], [ -83.4728, 33.7892 ], [ -83.4739, 33.7874 ], [ -83.47, 33.7842 ], [ -83.47, 33.7801 ], [ -83.465, 33.7747 ], [ -83.4617, 33.7742 ], [ -83.4584, 33.7688 ], [ -83.4594, 33.7652 ], [ -83.4544, 33.7588 ], [ -83.4533, 33.7493 ], [ -83.4505, 33.7475 ], [ -83.451, 33.7434 ], [ -83.4527, 33.7429 ], [ -83.4521, 33.7388 ], [ -83.4499, 33.7343 ], [ -83.4465, 33.7329 ], [ -83.4448, 33.727 ], [ -83.4454, 33.7229 ], [ -83.4393, 33.7193 ], [ -83.4343, 33.7193 ], [ -83.431, 33.7157 ], [ -83.4244, 33.7157 ], [ -83.4233, 33.7144 ], [ -83.4243, 33.713 ], [ -83.4194, 33.7094 ], [ -83.4177, 33.7044 ], [ -83.416, 33.7053 ], [ -83.4111, 33.7035 ], [ -83.4061, 33.6985 ], [ -83.4005, 33.6958 ], [ -83.3994, 33.6912 ], [ -83.395, 33.6908 ], [ -83.3966, 33.6872 ], [ -83.3883, 33.6786 ], [ -83.3872, 33.6735 ], [ -83.3827, 33.669 ], [ -83.3838, 33.6663 ], [ -83.3794, 33.6604 ], [ -83.3772, 33.6609 ], [ -83.3744, 33.6563 ], [ -83.3711, 33.6563 ], [ -83.3689, 33.6536 ], [ -83.3705, 33.6513 ], [ -83.3672, 33.6491 ], [ -83.3689, 33.6472 ], [ -83.365, 33.6441 ], [ -83.365, 33.64 ], [ -83.3627, 33.64 ], [ -83.3627, 33.6368 ], [ -83.3644, 33.635 ], [ -83.3594, 33.6282 ], [ -83.3594, 33.6223 ], [ -83.3577, 33.62 ], [ -83.3544, 33.62 ], [ -83.3544, 33.6182 ], [ -83.3494, 33.6137 ], [ -83.3471, 33.6018 ], [ -83.3488, 33.5973 ], [ -83.3438, 33.5959 ], [ -83.338, 33.5975 ], [ -83.3394, 33.5955 ], [ -83.3372, 33.5941 ], [ -83.3377, 33.5905 ], [ -83.3361, 33.5878 ], [ -83.3338, 33.5873 ], [ -83.3305, 33.5832 ], [ -83.3261, 33.5842 ], [ -83.3267, 33.5801 ], [ -83.3228, 33.5801 ], [ -83.32, 33.5742 ], [ -83.3173, 33.5737 ], [ -83.3178, 33.5705 ], [ -83.3145, 33.5692 ], [ -83.3134, 33.5665 ], [ -83.3095, 33.5642 ], [ -83.2996, 33.5629 ], [ -83.3012, 33.556 ], [ -83.2929, 33.5501 ], [ -83.289, 33.5442 ], [ -83.2863, 33.5429 ], [ -83.2775, 33.5443 ], [ -83.2731, 33.5406 ], [ -83.2692, 33.5343 ], [ -83.2692, 33.532 ], [ -83.2758, 33.5293 ], [ -83.2807, 33.5233 ], [ -83.2801, 33.517 ], [ -83.284, 33.5092 ], [ -83.2823, 33.5029 ], [ -83.2768, 33.4956 ], [ -83.2767, 33.4929 ], [ -83.28, 33.4883 ], [ -83.28, 33.4833 ], [ -83.4175, 33.4583 ], [ -83.5334, 33.4342 ], [ -83.5376, 33.3964 ], [ -83.5368, 33.3737 ], [ -83.5395, 33.3545 ], [ -83.5397, 33.31 ], [ -83.5422, 33.2767 ], [ -83.5459, 33.1716 ], [ -83.6428, 33.1593 ], [ -83.7779, 33.1334 ], [ -83.7813, 33.137 ], [ -83.8163, 33.1318 ], [ -83.8175, 33.1431 ], [ -83.8143, 33.1491 ], [ -83.8237, 33.1581 ], [ -83.8248, 33.1613 ], [ -83.8244, 33.1758 ], [ -83.8228, 33.1804 ], [ -83.8355, 33.1871 ], [ -83.8355, 33.1899 ], [ -83.8388, 33.1908 ], [ -83.8422, 33.1966 ], [ -83.8455, 33.1971 ], [ -83.8526, 33.1947 ], [ -83.8598, 33.2006 ], [ -83.8664, 33.2001 ], [ -83.8675, 33.2019 ], [ -84.041401233837732, 33.202579036446068 ], [ -84.044, 32.9478 ], [ -84.0538, 32.9477 ], [ -84.0542, 32.9313 ], [ -84.123, 32.932 ], [ -84.1222, 32.9894 ], [ -84.2705, 32.9911 ], [ -84.2896, 32.9913 ] ], [ [ -84.4977, 33.204 ], [ -84.4965, 33.2013 ], [ -84.497008848080128, 33.206833722871465 ], [ -84.4977, 33.204 ] ], [ [ -84.492921428571435, 33.1983 ], [ -84.4927, 33.1987 ], [ -84.493059911894278, 33.198946255506613 ], [ -84.492921428571435, 33.1983 ] ], [ [ -84.497645218800642, 33.182582252836305 ], [ -84.496168520220579, 33.183561695772063 ], [ -84.4973, 33.1831 ], [ -84.4958, 33.1931 ], [ -84.497645218800642, 33.182582252836305 ] ], [ [ -84.472605263157902, 33.201106698564594 ], [ -84.473, 33.2012 ], [ -84.47323930635838, 33.200818497109829 ], [ -84.472605263157902, 33.201106698564594 ] ], [ [ -84.2479, 33.1888 ], [ -84.2271, 33.1891 ], [ -84.3543, 33.1894 ], [ -84.2479, 33.1888 ] ], [ [ -84.2607, 33.9865 ], [ -84.2617, 33.9847 ], [ -84.259750666666662, 33.986649333333332 ], [ -84.2607, 33.9865 ] ], [ [ -84.2762, 33.9545 ], [ -84.2707, 33.955 ], [ -84.2668, 33.956 ], [ -84.2762, 33.9545 ] ], [ [ -84.3933, 33.3155 ], [ -84.393290391459075, 33.315173309608547 ], [ -84.392908064516135, 33.315603427419354 ], [ -84.3933, 33.3155 ] ], [ [ -84.5021, 33.2622 ], [ -84.49758774617068, 33.256626039387314 ], [ -84.4976, 33.2573 ], [ -84.5021, 33.2622 ] ], [ [ -84.498416319444445, 33.251474001736113 ], [ -84.4975, 33.2518 ], [ -84.497543655913987, 33.254201075268803 ], [ -84.498416319444445, 33.251474001736113 ] ], [ [ -84.5051, 33.2499 ], [ -84.506731460674146, 33.24851573033709 ], [ -84.501119047619071, 33.250512454212448 ], [ -84.5051, 33.2499 ] ], [ [ -84.5084, 33.2471 ], [ -84.5083, 33.2412 ], [ -84.507935103926101, 33.247494457274819 ], [ -84.5084, 33.2471 ] ], [ [ -84.5006, 33.2145 ], [ -84.497200867754245, 33.208921936827473 ], [ -84.4973, 33.21 ], [ -84.501694015861574, 33.218632948810402 ], [ -84.5006, 33.2145 ] ], [ [ -84.8793, 33.7744 ], [ -84.9706, 33.7988 ], [ -84.9005, 33.78 ], [ -84.8793, 33.7744 ] ], [ [ -84.8095, 33.5722 ], [ -84.809295454545463, 33.573590909090903 ], [ -84.810886193793536, 33.571388347055105 ], [ -84.8095, 33.5722 ] ], [ [ -84.8161, 33.5257 ], [ -84.8223, 33.5315 ], [ -84.815946715328479, 33.525240145985407 ], [ -84.8161, 33.5257 ] ], [ [ -84.8149, 33.5221 ], [ -84.815580357142863, 33.524141071428573 ], [ -84.815917628205128, 33.521375448717947 ], [ -84.8149, 33.5221 ] ], [ [ -84.842277358490563, 33.514687735849058 ], [ -84.8274, 33.5132 ], [ -84.8417, 33.5148 ], [ -84.842277358490563, 33.514687735849058 ] ], [ [ -84.851, 33.511 ], [ -84.848044902386121, 33.513566268980476 ], [ -84.8489, 33.5134 ], [ -84.851, 33.511 ] ], [ [ -84.6069, 33.5038 ], [ -84.6091, 33.5024 ], [ -84.609765443104351, 33.501009963293129 ], [ -84.6069, 33.5038 ] ], [ [ -84.5362, 33.0406 ], [ -84.536342857142841, 33.039814285714364 ], [ -84.5357, 33.042 ], [ -84.5362, 33.0406 ] ], [ [ -84.5372, 33.0351 ], [ -84.5332, 33.0279 ], [ -84.536967741935484, 33.036377419354842 ], [ -84.5372, 33.0351 ] ], [ [ -84.5384, 33.0123 ], [ -84.537936764705876, 33.011558823529413 ], [ -84.5342, 33.0201 ], [ -84.5384, 33.0123 ] ], [ [ -84.3952, 33.3623 ], [ -84.394807547169819, 33.361784905660379 ], [ -84.3936, 33.3642 ], [ -84.3952, 33.3623 ] ], [ [ -84.5792, 33.7425 ], [ -84.5862, 33.7292 ], [ -84.579167289719621, 33.742515264797511 ], [ -84.5792, 33.7425 ] ], [ [ -84.4181, 34.0529 ], [ -84.418, 34.1088 ], [ -84.4185, 34.0733 ], [ -84.4181, 34.0529 ] ], [ [ -84.7381, 34.0821 ], [ -84.7498, 34.0824 ], [ -84.8968, 34.0824 ], [ -84.7381, 34.0821 ] ], [ [ -84.7395, 33.9476 ], [ -84.7381, 34.0794 ], [ -84.7381, 34.0821 ], [ -84.7395, 33.9476 ] ], [ [ -84.1238, 33.5614 ], [ -84.130513725490189, 33.564290631808277 ], [ -84.1304, 33.564 ], [ -84.1238, 33.5614 ] ], [ [ -84.0445, 33.5253 ], [ -83.9304, 33.6523 ], [ -84.044, 33.5262 ], [ -84.0543, 33.5184 ], [ -84.0445, 33.5253 ] ], [ [ -84.1236, 33.2425 ], [ -84.1238, 33.1787 ], [ -84.1236, 33.2029 ], [ -84.1236, 33.2425 ] ], [ [ -83.920303306939914, 33.438429902189093 ], [ -83.9207, 33.4399 ], [ -83.9246, 33.4435 ], [ -83.920303306939914, 33.438429902189093 ] ], [ [ -83.9195, 33.4345 ], [ -83.919198477157352, 33.434335532994922 ], [ -83.9195349137931, 33.435582327586225 ], [ -83.9195, 33.4345 ] ], [ [ -83.8616, 33.3648 ], [ -83.862165304487178, 33.36586410256411 ], [ -83.8626, 33.3603 ], [ -83.8616, 33.3648 ] ], [ [ -83.8582, 33.3553 ], [ -83.859369366197186, 33.35590633802817 ], [ -83.857886624203815, 33.353889808917188 ], [ -83.8582, 33.3553 ] ], [ [ -83.8576, 33.3526 ], [ -83.857738101430428, 33.353221456436934 ], [ -83.86055, 33.34755 ], [ -83.8576, 33.3526 ] ], [ [ -83.8558, 33.3353 ], [ -83.863195123406157, 33.34221492058758 ], [ -83.8635, 33.3416 ], [ -83.8558, 33.3353 ] ], [ [ -83.830037561631556, 33.215325997310622 ], [ -83.8238, 33.2213 ], [ -83.8298, 33.2163 ], [ -83.830037561631556, 33.215325997310622 ] ], [ [ -83.829951991310651, 33.211576973207826 ], [ -83.830522737819024, 33.213336774941993 ], [ -83.8308, 33.2122 ], [ -83.829951991310651, 33.211576973207826 ] ], [ [ -84.0318, 33.7471 ], [ -84.0572, 33.7266 ], [ -84.020054901758755, 33.756217024997689 ], [ -84.0318, 33.7471 ] ], [ [ -83.6662, 33.916 ], [ -83.6651, 33.9124 ], [ -83.664707317073166, 33.9124 ], [ -83.6662, 33.916 ] ] ] } }
]
}
