{"type": "FeatureCollection", "features": [{"type": "Feature", "properties": {"metro_id": "BRM26", "metro_name": "Aracaju RM", "n_members": 4, "n_missing": 0, "n_states": 1, "states": "Sergipe"}, "geometry": {"type": "MultiPolygon", "coordinates": [[[[-37.0335, -10.9713], [-37.0354, -10.9798], [-37.0633, -11.0129], [-37.1257, -11.1031], [-37.144, -11.1339], [-37.1532, -11.1607], [-37.1554, -11.1611], [-37.1634, -11.1524], [-37.1655, -11.1433], [-37.1643, -11.1169], [-37.1664, -11.1054], [-37.1835, -11.0937], [-37.202, -11.0877], [-37.2192, -11.0765], [-37.2247, -11.0661], [-37.2256, -11.0434], [-37.2272, -11.0406], [-37.2503, -11.0352], [-37.2591, -11.0355], [-37.2706, -11.0288], [-37.2762, -11.0308], [-37.282, -11.0265], [-37.284, -11.0187], [-37.2874, -11.0142], [-37.2898, -11.0136], [-37.2924, -11.0158], [-37.2914, -11.0177], [-37.2949, -11.018], [-37.2955, -11.0156], [-37.2974, -11.0153], [-37.2944, -11.0144], [-37.3021, -11.0082], [-37.3006, -11.0047], [-37.3011, -10.9996], [-37.3026, -10.9947], [-37.3054, -10.992], [-37.3029, -10.9868], [-37.3086, -10.9828], [-37.3199, -10.9809], [-37.3252, -10.9766], [-37.3275, -10.9767], [-37.3281, -10.9742], [-37.3264, -10.9714], [-37.3233, -10.9698], [-37.327, -10.9684], [-37.3276, -10.9654], [-37.3325, -10.9634], [-37.3318, -10.9586], [-37.3338, -10.9516], [-37.3327, -10.9502], [-37.3351, -10.944], [-37.3277, -10.9331], [-37.3304, -10.9305], [-37.3181, -10.8322], [-37.3073, -10.8329], [-37.3184, -10.8321], [-37.2354, -10.8348], [-37.222, -10.8411], [-37.2149, -10.8481], [-37.2084, -10.8465], [-37.2036, -10.8486], [-37.2014, -10.8477], [-37.2004, -10.8501], [-37.198, -10.85], [-37.196, -10.8526], [-37.1938, -10.8514], [-37.1902, -10.8538], [-37.1878, -10.8528], [-37.1792, -10.8552], [-37.177, -10.8517], [-37.1772, -10.8473], [-37.1737, -10.8421], [-37.1692, -10.84], [-37.1671, -10.841], [-37.1669, -10.8392], [-37.1578, -10.836], [-37.1586, -10.8338], [-37.1567, -10.8319], [-37.1526, -10.8323], [-37.1516, -10.8347], [-37.1495, -10.8351], [-37.143, -10.832], [-37.1378, -10.8349], [-37.1332, -10.8351], [-37.1179, -10.832], [-37.1116, -10.8293], [-37.1088, -10.8268], [-37.1073, -10.8212], [-37.1015, -10.8181], [-37.0911, -10.8234], [-37.0843, -10.8219], [-37.0756, -10.8234], [-37.0573, -10.823], [-37.0458, -10.8259], [-37.0382, -10.8311], [-37.031, -10.84], [-37.0284, -10.8474], [-37.0339, -10.8701], [-37.0364, -10.8779], [-37.0435, -10.8898], [-37.0398, -10.8841], [-37.0316, -10.8864], [-37.028, -10.8852], [-37.0154, -10.8732], [-37.0157, -10.864], [-37.0092, -10.8649], [-37.0061, -10.8593], [-37.0023, -10.8612], [-36.9985, -10.8607], [-36.9935, -10.8568], [-36.993, -10.8528], [-36.9833, -10.849], [-36.9812, -10.8449], [-36.9824, -10.8408], [-36.9878, -10.8371], [-36.9851, -10.8328], [-36.9833, -10.8322], [-36.9841, -10.8345], [-36.9827, -10.8358], [-36.9787, -10.8321], [-36.9684, -10.8329], [-36.9653, -10.8205], [-36.9593, -10.8171], [-36.961, -10.8114], [-36.9592, -10.8073], [-36.956, -10.8089], [-36.9544, -10.8053], [-36.9498, -10.8022], [-36.9473, -10.7979], [-36.9384, -10.7953], [-36.9367, -10.7912], [-36.9373, -10.7873], [-36.936, -10.7869], [-36.9347, -10.7891], [-36.9327, -10.7863], [-36.9281, -10.7902], [-36.9272, -10.7865], [-36.925, -10.788], [-36.9246, -10.7859], [-36.9214, -10.7855], [-36.9161, -10.7805], [-36.9103, -10.7773], [-36.9051, -10.7765], [-36.904, -10.7736], [-36.8994, -10.7726], [-36.886, -10.7545], [-36.8822, -10.7444], [-36.8762, -10.7382], [-36.8692, -10.7438], [-36.865, -10.7411], [-36.862, -10.7429], [-36.8546, -10.7426], [-36.8527, -10.7442], [-36.8675, -10.7581], [-36.9138, -10.8084], [-36.9316, -10.832], [-36.9389, -10.8367], [-36.9531, -10.8515], [-37.0079, -10.9212], [-37.0261, -10.9514], [-37.03474862385321, -10.95690366972477], [-37.0346, -10.9573], [-37.0362, -10.9627], [-37.0335, -10.9713]], [[-37.0445, -10.9042], [-37.044308858465875, -10.905078437688733], [-37.0435, -10.8898], [-37.0445, -10.9042]], [[-37.161, -10.9235], [-37.16065524861878, -10.92342044198895], [-37.16108347826087, -10.923320521739129], [-37.161, -10.9235]], [[-37.0914, -10.941], [-37.1075, -10.9048], [-37.1021, -10.9171], [-37.0914, -10.941]], [[-37.1050800180018, -10.890773537353738], [-37.1051, -10.891], [-37.1021, -10.8926], [-37.1050800180018, -10.890773537353738]], [[-37.104594382022476, -10.887325842696638], [-37.1048, -10.8876], [-37.10495123966942, -10.889314049586732], [-37.104594382022476, -10.887325842696638]], [[-37.10289139784946, -10.885664516129031], [-37.1033, -10.8856], [-37.10386249999999, -10.886349999999991], [-37.10289139784946, -10.885664516129031]], [[-37.0986, -10.8869], [-37.098042105263154, -10.886430193905817], [-37.10227933884298, -10.885761157024792], [-37.0986, -10.8869]], [[-37.0967, -10.8853], [-37.09684887218045, -10.88458045112782], [-37.097341979522184, -10.885840614334475], [-37.0967, -10.8853]], [[-37.0973, -10.8824], [-37.10101900826447, -10.879300826446274], [-37.096997377269666, -10.883862676529926], [-37.0973, -10.8824]], [[-37.1029, -10.876266666666664], [-37.1034, -10.8766], [-37.103126959247646, -10.87690971786834], [-37.1029, -10.876266666666664]], [[-37.0925, -10.8743], [-37.1013, -10.8752], [-37.101881481481485, -10.875587654320988], [-37.0925, -10.8743]], [[-37.08204215573456, -10.862767050249328], [-37.0828, -10.8628], [-37.0925, -10.8743], [-37.08204215573456, -10.862767050249328]], [[-37.077584236453205, -10.862883251231526], [-37.0782, -10.8626], [-37.07989117647059, -10.862673529411765], [-37.077584236453205, -10.862883251231526]], [[-37.073079536679536, -10.865272019077901], [-37.0732, -10.8649], [-37.07663612334799, -10.863319383259928], [-37.073079536679536, -10.865272019077901]], [[-37.0705, -10.8739], [-37.07017758444217, -10.874233930399186], [-37.070951002227176, -10.87184543429843], [-37.0705, -10.8739]], [[-37.1723, -11.0837], [-37.1715999397953, -11.08439319686936], [-37.172748314606736, -11.082611235955062], [-37.1723, -11.0837]], [[-37.1737, -11.0803], [-37.1734207253886, -11.080978238341961], [-37.173477617328516, -11.079271480144406], [-37.1737, -11.0803]], [[-37.1729, -11.0766], [-37.173190909090906, -11.077945454545457], [-37.17163206239167, -11.074644367417669], [-37.1729, -11.0766]], [[-37.1611, -11.0584], [-37.165704046242766, -11.065501156069358], [-37.15931413807359, -11.05692666391071], [-37.1611, -11.0584]], [[-37.1571, -11.0551], [-37.15739007633588, -11.055339312977098], [-37.15679477911647, -11.05512670682731], [-37.1571, -11.0551]]], [[[-36.9169, -10.8419], [-36.917, -10.8435], [-36.9185, -10.8462], [-36.9195, -10.8466], [-36.9169, -10.8419]]]]}}]}