{"type": "FeatureCollection", "features": [{"type": "Feature", "properties": {"metro_id": "JPM06", "metro_name": "Sapporo MMA", "n_members": 13, "n_missing": 0, "n_prefs": 1, "prefs": "Hokkaido"}, "geometry": {"type": "Polygon", "coordinates": [[[141.8255, 42.8997], [141.8072, 42.8816], [141.807, 42.8677], [141.7996, 42.8504], [141.795, 42.8453], [141.7845, 42.8401], [141.7818, 42.8372], [141.7825, 42.8309], [141.788, 42.8221], [141.7858, 42.8147], [141.7609, 42.7999], [141.7589, 42.7965], [141.7594, 42.7925], [141.7196, 42.7741], [141.7106, 42.7717], [141.7016, 42.7714], [141.6926, 42.7719], [141.6799, 42.7767], [141.6727, 42.7778], [141.6258, 42.7771], [141.6092, 42.7689], [141.5941, 42.7584], [141.5839, 42.7485], [141.5789, 42.7466], [141.5546, 42.7556], [141.5365, 42.7525], [141.5183, 42.7562], [141.5019, 42.7523], [141.4586, 42.7656], [141.4276, 42.7663], [141.424, 42.7645], [141.4222, 42.7609], [141.4215, 42.7372], [141.4192, 42.7282], [141.4002, 42.6989], [141.3956, 42.6961], [141.3868, 42.6961], [141.3734, 42.6882], [141.356, 42.6862], [141.3492, 42.688], [141.3236, 42.6891], [141.3084, 42.6977], [141.2959, 42.7094], [141.2719, 42.716], [141.2515, 42.7058], [141.2237, 42.704], [141.2083, 42.6968], [141.2002, 42.691], [141.1994, 42.7145], [141.1921, 42.7275], [141.186, 42.7472], [141.1866, 42.7589], [141.2048, 42.7783], [141.2068, 42.7852], [141.2062, 42.788], [141.2085, 42.7909], [141.2114, 42.7919], [141.2231, 42.7899], [141.2349, 42.795], [141.2366, 42.7994], [141.2363, 42.813], [141.2439, 42.8231], [141.2509, 42.8346], [141.2678, 42.8534], [141.2727, 42.8675], [141.28, 42.8723], [141.2957, 42.8777], [141.3095, 42.8901], [141.3157, 42.8913], [141.3219, 42.8904], [141.325, 42.8887], [141.3343, 42.8771], [141.3387, 42.8756], [141.3491, 42.876], [141.3677, 42.8826], [141.3798, 42.8936], [141.3871, 42.8974], [141.4054, 42.8968], [141.4172, 42.8921], [141.4231, 42.8926], [141.4262, 42.8944], [141.4281, 42.8989], [141.4276, 42.9087], [141.4323, 42.917], [141.4525, 42.9356], [141.4643, 42.943], [141.47, 42.9496], [141.4729, 42.9653], [141.4859, 42.9946], [141.4887, 43.0056], [141.495, 43.0156], [141.4962, 43.0245], [141.5014, 43.0283], [141.5159, 43.0303], [141.5147, 43.0371], [141.5072, 43.0558], [141.5013, 43.0608], [141.4911, 43.064], [141.4842, 43.071], [141.4816, 43.0816], [141.4808, 43.0965], [141.4785, 43.1018], [141.4727, 43.1041], [141.4637, 43.0973], [141.4587, 43.0991], [141.4552, 43.1025], [141.4543, 43.1103], [141.4627, 43.1288], [141.464, 43.1398], [141.4619, 43.1475], [141.4509, 43.1663], [141.4366, 43.1709], [141.4012, 43.1729], [141.3922, 43.1726], [141.3804, 43.1763], [141.3702, 43.1757], [141.3658, 43.1728], [141.358, 43.1619], [141.3437, 43.1519], [141.3221, 43.144], [141.3013, 43.138], [141.2958, 43.1378], [141.2839, 43.1408], [141.2778, 43.1446], [141.2755, 43.1479], [141.266, 43.1545], [141.2628, 43.1591], [141.2536, 43.1613], [141.2473, 43.1538], [141.2344, 43.1427], [141.2288, 43.1276], [141.1933, 43.116], [141.1656, 43.0938], [141.1595, 43.0931], [141.1525, 43.0957], [141.1433, 43.1047], [141.121, 43.1141], [141.098, 43.1153], [141.09, 43.114], [141.0792, 43.1013], [141.078, 43.0879], [141.0699, 43.0697], [141.0563, 43.058], [141.0442, 43.066], [141.0304, 43.0782], [141.0201, 43.0962], [141.0177, 43.1059], [141.0112, 43.1202], [141.0005, 43.1278], [140.9942, 43.1292], [140.9831, 43.1263], [140.972, 43.1293], [140.9618, 43.1298], [140.9397, 43.1297], [140.9303, 43.1282], [140.9363, 43.1421], [140.9357, 43.1454], [140.9316, 43.15], [140.9073, 43.1632], [140.8894, 43.1661], [140.88, 43.1653], [140.8704, 43.1703], [140.8637, 43.1774], [140.8602, 43.1839], [140.8561, 43.2014], [140.8574, 43.2037], [140.8535, 43.2114], [140.8553, 43.2119], [140.8588, 43.2094], [140.86, 43.2103], [140.8581, 43.2136], [140.8558, 43.2131], [140.8531, 43.2156], [140.8639, 43.2178], [140.8672, 43.2135], [140.8676, 43.2074], [140.8716, 43.2054], [140.8892, 43.209], [140.892, 43.208], [140.8959, 43.2116], [140.9139, 43.2109], [140.9184, 43.212], [140.9214, 43.2152], [140.9201, 43.2182], [140.9173, 43.2183], [140.9186, 43.2235], [140.9223, 43.2232], [140.9267, 43.2277], [140.9376, 43.2259], [140.9384, 43.2276], [140.9512, 43.2279], [140.9622, 43.232], [140.9681, 43.2368], [140.9787, 43.2395], [141.0153, 43.2388], [141.017, 43.2378], [141.0161, 43.2343], [141.0131, 43.2318], [141.0161, 43.2299], [141.0167, 43.2255], [141.0212, 43.2254], [141.0209, 43.2229], [141.0186, 43.2195], [141.0161, 43.2196], [141.0139, 43.2168], [141.0146, 43.2125], [141.0099, 43.2099], [141.0045, 43.2098], [141.0028, 43.2069], [141.0066, 43.2052], [141.0064, 43.2039], [141.0033, 43.2031], [141.0042, 43.2022], [141.0067, 43.2036], [141.0082, 43.2027], [141.0058, 43.2011], [141.0086, 43.2006], [141.0071, 43.1982], [141.0102, 43.199], [141.0076, 43.1958], [141.0096, 43.1941], [141.0143, 43.1954], [141.016, 43.1934], [141.0109, 43.1912], [141.0118, 43.1894], [141.0124, 43.1912], [141.0141, 43.1901], [141.0188, 43.1916], [141.0299, 43.1866], [141.0256, 43.1842], [141.0292, 43.1824], [141.0311, 43.1839], [141.0348, 43.1835], [141.0421, 43.1791], [141.0573, 43.1795], [141.0658, 43.1776], [141.0734, 43.1732], [141.0896, 43.1715], [141.1125, 43.1627], [141.13, 43.1533], [141.1413, 43.152], [141.1486, 43.1478], [141.1614, 43.1439], [141.1906, 43.152], [141.2358, 43.1695], [141.2737, 43.1891], [141.2744, 43.1905], [141.2713, 43.1946], [141.2761, 43.1908], [141.2775, 43.1913], [141.2788, 43.1932], [141.2762, 43.1965], [141.2782, 43.1989], [141.2829, 43.1957], [141.2869, 43.1963], [141.2885, 43.1887], [141.2902, 43.1867], [141.2935, 43.1875], [141.2922, 43.1923], [141.2939, 43.1933], [141.2929, 43.194], [141.2912, 43.195], [141.2907, 43.2047], [141.2937, 43.2071], [141.3041, 43.209], [141.3084, 43.2122], [141.3042, 43.216], [141.3009, 43.2134], [141.2998, 43.2149], [141.3041, 43.2177], [141.3085, 43.216], [141.3181, 43.2205], [141.3476, 43.2466], [141.3671, 43.2672], [141.3736, 43.2688], [141.3731, 43.2753], [141.3993, 43.2986], [141.4061, 43.3064], [141.407, 43.3101], [141.4143, 43.3159], [141.4208, 43.3241], [141.4241, 43.3295], [141.4211, 43.3429], [141.4221, 43.3474], [141.4274, 43.3544], [141.4269, 43.357], [141.4286, 43.3601], [141.4249, 43.3646], [141.4246, 43.3709], [141.4257, 43.3773], [141.4316, 43.3896], [141.4268, 43.4214], [141.4129, 43.4411], [141.4103, 43.4486], [141.3993, 43.4618], [141.3949, 43.4708], [141.3927, 43.4719], [141.3938, 43.4748], [141.3885, 43.4779], [141.3882, 43.4806], [141.3743, 43.4915], [141.3715, 43.4954], [141.3723, 43.5002], [141.3711, 43.5032], [141.3587, 43.5174], [141.3595, 43.5286], [141.3612, 43.5319], [141.3606, 43.5368], [141.3641, 43.5399], [141.371, 43.554], [141.3776, 43.5595], [141.3857, 43.5828], [141.3863, 43.5889], [141.3836, 43.5944], [141.3842, 43.6], [141.3822, 43.6021], [141.3827, 43.6044], [141.365, 43.6176], [141.3632, 43.6208], [141.3631, 43.6274], [141.3521, 43.6413], [141.3497, 43.6667], [141.3384, 43.6846], [141.3389, 43.6931], [141.3312, 43.7073], [141.3294, 43.7141], [141.3295, 43.725], [141.3372, 43.7343], [141.3368, 43.7369], [141.3395, 43.7431], [141.3413, 43.7394], [141.3438, 43.7381], [141.3555, 43.7366], [141.3667, 43.7331], [141.3769, 43.7343], [141.3906, 43.7387], [141.4042, 43.7383], [141.4091, 43.7354], [141.4185, 43.7213], [141.4233, 43.7173], [141.4385, 43.7135], [141.4537, 43.7064], [141.4697, 43.7039], [141.4857, 43.6951], [141.4936, 43.6946], [141.5329, 43.6571], [141.5603, 43.64], [141.5704, 43.6273], [141.5885, 43.6133], [141.6066, 43.589], [141.6188, 43.5828], [141.6264, 43.5758], [141.631, 43.565], [141.6333, 43.544], [141.6462, 43.5289], [141.6472, 43.5254], [141.6535, 43.5256], [141.6683, 43.5168], [141.6826, 43.5029], [141.6947, 43.5003], [141.7116, 43.4896], [141.7227, 43.4894], [141.7254, 43.4881], [141.7346, 43.4747], [141.7299, 43.4641], [141.712, 43.4646], [141.6866, 43.4463], [141.6693, 43.4409], [141.6649, 43.4367], [141.6558, 43.4224], [141.6432, 43.4105], [141.616, 43.3988], [141.6104, 43.3929], [141.6044, 43.3804], [141.6013, 43.3689], [141.5897, 43.3597], [141.5901, 43.3533], [141.6008, 43.3482], [141.6067, 43.3391], [141.619, 43.2993], [141.6233, 43.2946], [141.6344, 43.2906], [141.6504, 43.2933], [141.6599, 43.2928], [141.6639, 43.2923], [141.6701, 43.2968], [141.6764, 43.2968], [141.6803, 43.2986], [141.6812, 43.3018], [141.6764, 43.3146], [141.6773, 43.3201], [141.688, 43.3284], [141.6942, 43.3375], [141.7007, 43.3425], [141.714, 43.3508], [141.7492, 43.3608], [141.7568, 43.361], [141.7654, 43.3584], [141.7689, 43.3593], [141.773, 43.365], [141.7785, 43.3835], [141.7918, 43.3836], [141.8213, 43.3911], [141.8285, 43.3966], [141.8359, 43.4068], [141.853, 43.4069], [141.8688, 43.4023], [141.8981, 43.4011], [141.9128, 43.3964], [141.929, 43.3943], [141.9455, 43.3854], [141.9778, 43.3793], [141.9846, 43.3822], [141.9953, 43.3934], [142.0163, 43.4044], [142.0206, 43.4093], [142.0217, 43.4161], [142.0294, 43.4208], [142.0404, 43.4251], [142.0613, 43.4263], [142.0645, 43.3977], [142.0735, 43.3817], [142.0747, 43.3765], [142.0735, 43.3594], [142.0705, 43.3542], [142.0637, 43.3517], [142.0576, 43.3583], [142.0511, 43.3606], [142.038, 43.3584], [142.0254, 43.3442], [142.0214, 43.3256], [142.0147, 43.3183], [141.9795, 43.3062], [141.9509, 43.2942], [141.9242, 43.298], [141.913, 43.2954], [141.8893, 43.2806], [141.8805, 43.2711], [141.8728, 43.2671], [141.8477, 43.2646], [141.8343, 43.2583], [141.8183, 43.2615], [141.813, 43.2484], [141.8135, 43.2429], [141.8176, 43.2389], [141.827, 43.2368], [141.8312, 43.2338], [141.8332, 43.2282], [141.833, 43.2169], [141.8348, 43.2135], [141.839, 43.2107], [141.8852, 43.2096], [141.8904, 43.2082], [141.8981, 43.2023], [141.904, 43.2003], [141.9099, 43.2023], [141.9227, 43.2121], [141.9295, 43.2137], [141.9375, 43.2105], [141.9526, 43.1991], [141.9588, 43.1977], [141.972, 43.1982], [141.9841, 43.1933], [141.9968, 43.1922], [142.027, 43.1767], [142.0374, 43.1766], [142.0448, 43.174], [142.0514, 43.167], [142.053, 43.1444], [142.0481, 43.1429], [142.0467, 43.1381], [142.0571, 43.1185], [142.0555, 43.1125], [142.0469, 43.105], [142.039, 43.1023], [142.019, 43.1092], [142.0037, 43.104], [141.9813, 43.1084], [141.9527, 43.1074], [141.9388, 43.103], [141.9305, 43.1021], [141.9259, 43.0987], [141.9249, 43.0933], [141.9283, 43.0821], [141.9271, 43.0734], [141.9219, 43.0559], [141.9165, 43.0523], [141.9146, 43.048], [141.9223, 43.0321], [141.9211, 43.0182], [141.9244, 43.0116], [141.9282, 43.0085], [141.9391, 43.0039], [141.9576, 43.0009], [141.9626, 42.996], [141.964, 42.9901], [141.962, 42.9792], [141.9626, 42.9736], [141.9785, 42.9562], [141.9809, 42.951], [141.982, 42.9346], [141.9799, 42.9246], [141.9626, 42.9252], [141.9404, 42.9162], [141.9344, 42.918], [141.9234, 42.9257], [141.8864, 42.959], [141.8807, 42.9714], [141.8694, 42.9794], [141.868, 42.9843], [141.8707, 42.9909], [141.8685, 42.9959], [141.8538, 43.0005], [141.8463, 43.0075], [141.8224, 43.0216], [141.815, 43.0316], [141.8093, 43.0362], [141.8044, 43.0365], [141.7948, 43.0331], [141.7872, 43.0361], [141.7788, 43.0452], [141.77343121275956, 43.05507473367439], [141.7606, 43.0359], [141.7602, 43.0305], [141.7641, 43.0192], [141.7636, 43.0126], [141.7618, 43.0059], [141.7532, 42.992], [141.7543, 42.9878], [141.7615, 42.9778], [141.7663, 42.9637], [141.7709, 42.959], [141.76983231150882, 42.95854007264995], [141.7855, 42.9487], [141.7964, 42.9438], [141.8257, 42.9365], [141.8361, 42.9362], [141.8597, 42.941], [141.865, 42.94], [141.8738, 42.9341], [141.8786, 42.9272], [141.8806, 42.9209], [141.8537, 42.9129], [141.8392, 42.9072], [141.8255, 42.8997]], [[141.51114958904097, 43.30018876712317], [141.5089, 43.2982], [141.50819516288257, 43.29715449160912], [141.51114958904097, 43.30018876712317]], [[141.52054758092578, 43.30613174382175], [141.5158, 43.3043], [141.5142558032924, 43.302934840591824], [141.52054758092578, 43.30613174382175]], [[141.5319, 43.3119], [141.5323016507385, 43.3126913119027], [141.53087028771176, 43.31137679483733], [141.5319, 43.3119]], [[141.5386, 43.3251], [141.5387124574025, 43.327439113972005], [141.53527518796992, 43.318549624060104], [141.5386, 43.3251]], [[141.50872994219654, 43.56541670520231], [141.508, 43.5644], [141.5089, 43.5604], [141.50872994219654, 43.56541670520231]], [[141.511790052108, 43.56852771198485], [141.5108, 43.5683], [141.51007663782445, 43.56729245982693], [141.511790052108, 43.56852771198485]], [[141.6549, 43.1197], [141.67137896904433, 43.12935336056443], [141.6713, 43.1294], [141.6549, 43.1197]], [[141.5939186666667, 43.07137992592596], [141.5947, 43.0724], [141.59464384821771, 43.07383748562662], [141.5939186666667, 43.07137992592596]], [[141.5807, 43.0612], [141.5911, 43.0677], [141.59249375672766, 43.06951962683889], [141.5807, 43.0612]], [[141.576, 43.053], [141.574, 43.0473], [141.5807, 43.0612], [141.576, 43.053]], [[141.5736, 43.039], [141.574, 43.0375428571428], [141.574, 43.0473], [141.5736, 43.039]], [[141.575, 43.0339], [141.57696843291995, 43.03212841037204], [141.57697586206896, 43.03213218390805], [141.574624742268, 43.03526701030931], [141.575, 43.0339]], [[141.65395611448417, 42.953203035559035], [141.6451, 42.9696], [141.64, 42.977], [141.65395611448417, 42.953203035559035]], [[141.6651466547725, 42.931132262860515], [141.6653, 42.9322], [141.66428307854505, 42.93408281497105], [141.6651466547725, 42.931132262860515]], [[141.71, 42.913], [141.71165246636772, 42.91411165919282], [141.7053, 42.9127], [141.71, 42.913]], [[141.7155, 42.9167], [141.7244, 42.9267], [141.713533926355, 42.91537736863882], [141.7155, 42.9167]], [[141.7465, 42.9355], [141.74944602649006, 42.937970860927145], [141.74365318671454, 42.93436642728904], [141.7465, 42.9355]], [[141.57307325141778, 43.03014990548204], [141.5555, 43.0292], [141.5714, 43.0293], [141.57307325141778, 43.03014990548204]], [[141.6534, 42.9269], [141.660437037037, 42.93506296296295], [141.6586, 42.9338], [141.6534, 42.9269]], [[141.5311, 42.9237], [141.5331038439273, 42.924452113002204], [141.5062, 42.9212], [141.5311, 42.9237]], [[141.29445783132527, 43.17793855421685], [141.2965, 43.1793], [141.2988, 43.1831], [141.29445783132527, 43.17793855421685]], [[141.2678, 43.1649], [141.289, 43.1743], [141.29104458598724, 43.17566305732484], [141.2678, 43.1649]], [[141.8746, 43.1361], [141.8574, 43.13], [141.87641935270804, 43.136307926023775], [141.8746, 43.1361]], [[141.8816, 43.1369], [141.87848441422597, 43.13654393305439], [141.8942, 43.1358], [141.8816, 43.1369]], [[141.7777005902192, 43.069931253513204], [141.777, 43.0724], [141.77347132150888, 43.07598798401196], [141.7777005902192, 43.069931253513204]], [[141.77847465437787, 43.063993087557606], [141.7791, 43.065], [141.77861113360322, 43.06672267206479], [141.77847465437787, 43.063993087557606]]]}}]}